label,Amino acid metabolism and transport,Carbohydrate metabolism and transport,Cell cycle control and mitosis,Cell motility,Cell wall/membrane/envelope biogenesis,Chromatin structure and dynamics,Coenzyme metabolism,Cytoskeleton,Defense mechanisms,Energy production and conversion,Inorganic ion transport and metabolism,Intracellular trafficing and secretion,Lipid metabolism,Nucleotide metabolism and transport,"Post-translational modification, protein turnover, chaperone functions",RNA processing and modification,Replication and repair,Secondary structure,Signal transduction,Transcription,Translation,pangea_id,Environmental Feature,Biome,Region,Province,Latitude,Longitude,Depth (m),Temperature (°C),Salinity (PSU),Oxygen (µmol/kg),Nitrates (µmol/L),NO2 (µmol/L),PO4 (µmol/L)
TARA_004_DCM_0.22-1.6,0.08339071706867722,0.062390690336943756,0.0046137843574838465,0.020305239681020836,0.019106564032522925,0.011587102679344432,0.07673663159684967,0.00011609183740354699,0.010855442300145008,0.26334231078100706,0.012758851953639629,0.03642083705576614,0.008593768287183577,0.04044732944728604,0.050628085456918756,0.004276837689478929,0.057216331511991576,0.022394653568804965,0.009960376698677036,0.0983430251005061,0.10651532855834894,TARA_X000000368,(DCM) deep chlorophyll maximum layer (ENVO:01000326),Westerlies Biome,(NAO) North Atlantic Ocean [MRGID:1912],(NAST-E) North Atlantic Subtropical Gyral Province [MRGID:21467],36.57,-6.54,38.7,16.2,36.6,,,,
TARA_004_SRF_0.22-1.6,0.0718649060199425,0.044458519171010645,0.0048221987873501545,0.030419200579531756,0.01643318536067234,0.004164161778000023,0.13182337969804686,0.000522866602477662,0.04099217316394826,0.3577060043017891,0.006394469252469485,0.0308099860342676,0.01471744730293466,0.05322612025072453,0.022452828973081273,0.0025656371753080033,0.05410815634306933,0.010416616255425342,0.007725678382537887,0.06285761385684291,0.031518850710569736,TARA_Y200000002,(SRF) surface water layer (ENVO:00002042),Westerlies Biome,(NAO) North Atlantic Ocean [MRGID:1912],(NAST-E) North Atlantic Subtropical Gyral Province [MRGID:21467],36.55,-6.57,10.0,20.5,36.6,,,,
TARA_007_DCM_0.22-1.6,0.054857542097146175,0.0852694625469389,0.002646569790552749,0.029132799990938065,0.018208180252723475,0.003917359229059135,0.06294757959080981,1.7575020109272852e-05,0.03168696964406973,0.23147060085928162,0.010039904644032283,0.06318392630344447,0.012976632320698542,0.031793614190984754,0.03077991898538172,0.0012938431216709153,0.11499125012528319,0.022746107963880637,0.029139239562909206,0.09709672051077832,0.06580420324930698,TARA_A200000159,(DCM) deep chlorophyll maximum layer (ENVO:01000326),Westerlies Biome,(MS) Mediterranean Sea [MRGID:1905],"(MEDI) Mediterranean Sea, Black Sea Province [MRGID:21465]",37.04,1.95,41.7,17.4,,,,0.0,0.01
TARA_007_SRF_0.22-1.6,0.06511843329689561,0.09402033709772425,0.011055882143887103,0.0515157497435861,0.03065585870481324,0.00184384030190065,0.04817363465024612,1.7370418693713517e-05,0.03723612862231953,0.22949150851914538,0.012585527800849039,0.06436002936487792,0.016248940198267614,0.026749876620460022,0.018804207643056355,0.00030942341233469977,0.09457901964204096,0.034276187688065035,0.019198184023327538,0.09769150138192187,0.04606835872558719,TARA_A200000113,(SRF) surface water layer (ENVO:00002042),Westerlies Biome,(MS) Mediterranean Sea [MRGID:1905],"(MEDI) Mediterranean Sea, Black Sea Province [MRGID:21465]",37.02,1.95,7.5,23.8,37.5,,,0.0,0.06
TARA_009_DCM_0.22-1.6,0.07100351240622026,0.05700996525059205,0.0036180767302760428,0.023744840099768554,0.03076085358458865,0.0074294768447932934,0.042232824307562686,0.00015176101732235981,0.006716317617772252,0.20582362883090383,0.015060253260800408,0.031196749857684804,0.009062630502203689,0.03866065348688808,0.0467992927701078,0.0018852735779012841,0.06209943484764771,0.025462123103122222,0.016838820463556222,0.1400404594933338,0.1644030519469539,TARA_X000001036,(DCM) deep chlorophyll maximum layer (ENVO:01000326),Westerlies Biome,(MS) Mediterranean Sea [MRGID:1905],"(MEDI) Mediterranean Sea, Black Sea Province [MRGID:21465]",39.07,5.86,55.0,16.2,37.8,,,0.02,0.02
TARA_009_SRF_0.22-1.6,0.05059653477054707,0.07440000352330732,0.013000879437497045,0.06177114905452729,0.033828267403068255,0.005309951883763742,0.058023526728400165,0.0004131004635185664,0.04958216286503245,0.26176156782855053,0.017270945249917086,0.06143312044026382,0.018740337985119912,0.0374799947522416,0.02419911895946041,0.003476546574571952,0.08281535255183504,0.016697388830591058,0.018636531054098775,0.09182909787450134,0.018734421769186625,TARA_X000000950,(SRF) surface water layer (ENVO:00002042),Westerlies Biome,(MS) Mediterranean Sea [MRGID:1905],"(MEDI) Mediterranean Sea, Black Sea Province [MRGID:21465]",39.07,5.86,5.8,23.9,38.0,,,0.01,0.02
TARA_018_DCM_0.22-1.6,0.07337779619969982,0.036261144863523304,0.004662350073378821,0.01998899924030899,0.013506086608032711,0.0020598388604535713,0.1131706671355096,0.00021133547611342808,0.07544101931348694,0.3388231863236164,0.004037151544055564,0.023695042364971938,0.00839660062908077,0.049009770231752625,0.024991708324807304,0.0009415091961193198,0.056871135973173836,0.014454549649198173,0.004520408005055589,0.07353445219695147,0.06204524779070962,TARA_S200000501,(DCM) deep chlorophyll maximum layer (ENVO:01000326),Westerlies Biome,(MS) Mediterranean Sea [MRGID:1905],"(MEDI) Mediterranean Sea, Black Sea Province [MRGID:21465]",35.76,14.25,61.6,18.4,37.9,237.9,,0.03,0.01
TARA_018_DCM_<-0.22,0.0071006491016885305,0.012982359396230256,0.000504200918741554,0.03258742233732994,0.03323396572309244,0.0038833169443918615,0.3906476269693486,0.0,0.030794562849026333,0.024531663486042275,0.0023837600623258536,0.028511699701307222,0.02153795190498036,0.0005290701568299621,0.010808956430144205,0.0,0.3042365108952207,0.0021425636878391924,0.01508417068583622,0.07780771845827363,0.0006918302913507579,TARA_A100000172,(DCM) deep chlorophyll maximum layer (ENVO:01000326),Westerlies Biome,(MS) Mediterranean Sea [MRGID:1905],"(MEDI) Mediterranean Sea, Black Sea Province [MRGID:21465]",35.76,14.25,61.6,18.4,37.9,237.9,,0.03,0.01
TARA_018_SRF_0.22-1.6,0.07599340996588767,0.037375760392719115,0.004755782161127277,0.019591442155739647,0.01505820627664875,0.0017353544250010037,0.11035418578435384,0.00014462198866588445,0.07240060012153962,0.3274859529085083,0.006010202785240202,0.022433322161102484,0.00976717818769279,0.04562103953073326,0.025608097576503785,0.0007341901108914353,0.0578906999291112,0.018166786229452874,0.005524165512620175,0.0767085054661025,0.06664049633035815,TARA_A100000164,(SRF) surface water layer (ENVO:00002042),Westerlies Biome,(MS) Mediterranean Sea [MRGID:1905],"(MEDI) Mediterranean Sea, Black Sea Province [MRGID:21465]",35.76,14.26,5.4,21.4,37.9,207.8,,0.02,0.03
TARA_018_SRF_<-0.22,0.018379371756230497,0.04642463459167794,0.007856831792013035,0.07946529772355013,0.08915294277672814,0.006298643408601856,0.0255997750060334,0.0,0.02997515991108902,0.063843478741588,0.025882623772352824,0.06553914333989637,0.023411745931612927,0.007449197001998907,0.05333610302204236,0.0,0.12501939187825947,0.013694229658086312,0.03888800575473898,0.27947711622416793,0.0003063077093319225,TARA_A100000171,(SRF) surface water layer (ENVO:00002042),Westerlies Biome,(MS) Mediterranean Sea [MRGID:1905],"(MEDI) Mediterranean Sea, Black Sea Province [MRGID:21465]",35.76,14.26,5.4,21.4,37.9,207.8,,0.02,0.03
TARA_022_SRF_<-0.22,0.013482005570372211,0.07510334041449589,0.003446037743243895,0.09009325979247272,0.0648439496356071,0.015510682072790022,0.007148232128460123,0.0,0.13998246214759627,0.03523149053784465,0.01689186650723501,0.05796649354215404,0.012519581606435012,0.0017778161818614792,0.043276312793895814,0.0,0.2708341426443347,0.003274575396373452,0.020860901880071368,0.12735298345527116,0.0004038659494851025,TARA_S200002703,(SRF) surface water layer (ENVO:00002042),Westerlies Biome,(MS) Mediterranean Sea [MRGID:1905],"(MEDI) Mediterranean Sea, Black Sea Province [MRGID:21465]",39.84,17.4,5.5,17.0,37.8,220.9,,0.07,0.02
TARA_023_DCM_0.22-1.6,0.07762274861390876,0.08055537338194005,0.0027885501073585655,0.026981923322442185,0.02300558684276677,0.004220011848450715,0.03528376085261036,0.0003270029581940686,0.01735941809984296,0.2763951857805856,0.017332795049580987,0.03057795076671626,0.014586515817917983,0.03381334394720511,0.03147093391155855,0.0012643142985593262,0.10685891631630724,0.03611714337462945,0.017272449495861646,0.09070090108177034,0.07546517413179303,TARA_E500000081,(DCM) deep chlorophyll maximum layer (ENVO:01000326),Westerlies Biome,(MS) Mediterranean Sea [MRGID:1905],"(MEDI) Mediterranean Sea, Black Sea Province [MRGID:21465]",42.17,17.72,55.2,15.7,38.4,224.3,,0.01,0.01
TARA_023_DCM_<-0.22,0.004085585721095884,0.044426881728762115,0.002026928166868945,0.007970103858338688,0.03925558128165827,0.007969818427680762,0.05794248293824564,0.0,0.1965854274917787,0.02201555723465187,0.0029334797425996035,0.023755905193801413,0.01962821185871394,0.0004844606501220409,0.042731152786324424,0.0,0.4681075458535323,0.0022245685404153432,0.015645769821958234,0.04147305342842202,0.0007374852750299248,TARA_X000001382,(DCM) deep chlorophyll maximum layer (ENVO:01000326),Westerlies Biome,(MS) Mediterranean Sea [MRGID:1905],"(MEDI) Mediterranean Sea, Black Sea Province [MRGID:21465]",42.17,17.72,55.2,15.7,38.4,224.3,,0.01,0.01
TARA_023_SRF_0.22-1.6,0.0741809740384159,0.08036797338194865,0.008139268646674138,0.04729908920161508,0.03979767009449615,0.006171062397423897,0.027948398250615927,0.000630572270680002,0.024066181870153816,0.25810731740601794,0.015701517316599696,0.04198049306998842,0.01971470732849103,0.026881437580522843,0.04009445238569663,0.0023178462206885895,0.0957612738860925,0.025144130589179414,0.026919274368334245,0.09356406149570475,0.04521229820066043,TARA_E500000075,(SRF) surface water layer (ENVO:00002042),Westerlies Biome,(MS) Mediterranean Sea [MRGID:1905],"(MEDI) Mediterranean Sea, Black Sea Province [MRGID:21465]",42.21,17.71,5.5,17.6,38.2,220.0,,0.01,0.01
TARA_025_DCM_0.22-1.6,0.06732743055997777,0.033279371337919916,0.001913316856063555,0.011320702021479532,0.022573598794436198,0.003405072006031311,0.07819541880380884,0.0003867174273722441,0.022145688254374036,0.40560366311801777,0.009264850758973686,0.014918552954856968,0.007804049563408011,0.04308529366250047,0.036284338176315226,0.0010540586977067262,0.05145151037050716,0.012062785653242779,0.012765418364273461,0.09133410834759752,0.07382405427113696,TARA_E500000331,(DCM) deep chlorophyll maximum layer (ENVO:01000326),Westerlies Biome,(MS) Mediterranean Sea [MRGID:1905],"(MEDI) Mediterranean Sea, Black Sea Province [MRGID:21465]",39.41,19.38,51.7,15.2,38.5,229.5,,0.07,0.07
TARA_025_DCM_<-0.22,0.018259072540845096,0.059109115254193656,0.0023172736534732385,0.09976513113874567,0.07174488232734719,0.009751172161510085,0.0647599863041715,0.0,0.017191096807395573,0.0659837646049139,0.046936122637678886,0.08222746416904853,0.018958670648020662,0.004860129036580194,0.042172013414403416,0.0,0.1556569782182683,0.009097157648147216,0.05001917835717047,0.18062904196863325,0.0005617491094532158,TARA_E500000305,(DCM) deep chlorophyll maximum layer (ENVO:01000326),Westerlies Biome,(MS) Mediterranean Sea [MRGID:1905],"(MEDI) Mediterranean Sea, Black Sea Province [MRGID:21465]",39.41,19.38,51.7,15.2,38.5,229.5,,0.07,0.07
TARA_025_SRF_0.22-1.6,0.0636191356324545,0.0637063687146174,0.0069562687882836,0.05291561357177168,0.03629329491135516,0.005756342447840137,0.051492411215228066,0.0008675996791231356,0.028112252729902226,0.2877831834690301,0.02524151887125308,0.045575512272732356,0.021959613574865713,0.04561503504352887,0.042195311653566936,0.004569003488303523,0.09092095306605498,0.009953467007552397,0.028499495241465847,0.07605346277463447,0.011914155846435761,TARA_E500000178,(SRF) surface water layer (ENVO:00002042),Westerlies Biome,(MS) Mediterranean Sea [MRGID:1905],"(MEDI) Mediterranean Sea, Black Sea Province [MRGID:21465]",39.39,19.39,5.5,18.3,38.2,218.0,,0.0,0.01
TARA_025_SRF_<-0.22,0.03515437359465178,0.053613755723464065,0.0037831977155296462,0.11235648116436592,0.09612202416300723,0.009875098837834625,0.008946069807072295,0.0,0.03902515571742845,0.08333864132550876,0.07694667117599482,0.04810014088282111,0.015767335763055678,0.0069430379860472135,0.04121268967837988,8.710308408327967e-06,0.15140833190392444,0.000816394611525302,0.02632189617496219,0.18950781136562284,0.0007521821003955187,TARA_E500000318,(SRF) surface water layer (ENVO:00002042),Westerlies Biome,(MS) Mediterranean Sea [MRGID:1905],"(MEDI) Mediterranean Sea, Black Sea Province [MRGID:21465]",39.39,19.39,5.5,18.3,38.2,218.0,,0.0,0.01
TARA_030_DCM_0.22-1.6,0.0810395352851982,0.05432980647537668,0.008413939096901041,0.024157229386812914,0.021341928674612393,0.0034830431110502665,0.06809896102779102,0.0001861429456558456,0.06775943346631488,0.3688720742317612,0.007277079679718469,0.03073403598610866,0.013803043535958999,0.039510168106791047,0.023571070341069752,0.0014056804878114805,0.06652223202083447,0.02754086031743364,0.00879763298308478,0.06214409755703117,0.021012005282683047,TARA_A100001011,(DCM) deep chlorophyll maximum layer (ENVO:01000326),Westerlies Biome,(MS) Mediterranean Sea [MRGID:1905],"(MEDI) Mediterranean Sea, Black Sea Province [MRGID:21465]",33.93,32.77,69.1,19.0,39.3,218.1,0.3,0.01,0.0
TARA_030_DCM_<-0.22,0.01257328613442887,0.06780593639551134,0.008538470342057953,0.03706633829049706,0.05473779505702341,0.001138254648159497,0.030125637237395746,0.0,0.03442673715368084,0.07992165929117996,0.03418804849744582,0.07488765665669585,0.015479119506854617,0.0016080101099410404,0.040869711738696975,0.0,0.2717889697901166,0.0019731124771107953,0.0510501435678396,0.18076655121481203,0.0010545618905519099,TARA_X000001388,(DCM) deep chlorophyll maximum layer (ENVO:01000326),Westerlies Biome,(MS) Mediterranean Sea [MRGID:1905],"(MEDI) Mediterranean Sea, Black Sea Province [MRGID:21465]",33.93,32.77,69.1,19.0,39.3,218.1,0.3,0.01,0.0
TARA_030_SRF_0.22-1.6,0.049464075040682905,0.07972610213286029,0.01786852567552485,0.026267654011435382,0.039915325505949985,0.014164793342707073,0.04609380645998654,0.019112329629431064,0.02047298829473437,0.21028806875219255,0.009969737946104939,0.06501002100908278,0.024835589844495673,0.014800039130339478,0.04198013124423354,0.004627225508089687,0.16755894264282345,0.04143486792646192,0.014551704053237326,0.054008159422525855,0.03784991242710044,TARA_A100001015,(SRF) surface water layer (ENVO:00002042),Westerlies Biome,(MS) Mediterranean Sea [MRGID:1905],"(MEDI) Mediterranean Sea, Black Sea Province [MRGID:21465]",33.92,32.89,5.4,20.5,39.4,207.6,-0.7,0.0,0.0
TARA_031_SRF_0.22-1.6,0.05555482316035781,0.024275755879996395,0.0038672185444206877,0.013556907198560824,0.012956065543023263,0.004161798376371719,0.11457796770192495,0.0004537047895790955,0.029897196878139562,0.44701211471295066,0.005701460364964901,0.01945667697018144,0.004065989447715586,0.06673856033132947,0.04272468396761579,0.0019433955601411241,0.03877317143812616,0.006661076777086941,0.004413609648543966,0.0710879109867907,0.032119911722178894,TARA_A100001388,(SRF) surface water layer (ENVO:00002042),Coastal Biome ,(RS) Red Sea [MRGID:4264],"(REDS) Red Sea, Persian Gulf Province [MRGID:21474]",27.16,34.83,5.4,25.1,40.0,188.8,-0.1,0.01,0.02
TARA_031_SRF_<-0.22,0.027957867227490763,0.04422281810627809,0.004958723358428153,0.07617084167342919,0.07590452516247764,0.005771159579056139,0.07140671871631377,0.0,0.019264051300641797,0.06430252276124014,0.048466828259927916,0.06139341228168347,0.02103505056034679,0.0027560550091204838,0.03615542561313693,2.649036479233647e-05,0.15477495137077993,0.0016675079196522176,0.042038424560576666,0.23995557950159824,0.0017710466730294146,TARA_A100001391,(SRF) surface water layer (ENVO:00002042),Coastal Biome ,(RS) Red Sea [MRGID:4264],"(REDS) Red Sea, Persian Gulf Province [MRGID:21474]",27.16,34.83,5.4,25.1,40.0,188.8,-0.1,0.01,0.02
TARA_032_DCM_0.22-1.6,0.0667689424185645,0.05794716407183442,0.004006145743221858,0.020448995691099585,0.041064205035113724,0.008465310610298806,0.03597678596407644,0.00013787688850226625,0.004468528152592804,0.16740932068960548,0.02401764061571199,0.03184211060996867,0.006946564508430597,0.04236642823491565,0.0721094364787763,0.0015824049394081,0.07096206684142027,0.01545652796883812,0.02429997225725405,0.13101323198692535,0.17271034029344096,TARA_A100001037,(DCM) deep chlorophyll maximum layer (ENVO:01000326),Coastal Biome ,(RS) Red Sea [MRGID:4264],"(REDS) Red Sea, Persian Gulf Province [MRGID:21474]",23.38,37.29,85.5,26.1,40.2,180.0,1.2,0.01,0.03
TARA_032_DCM_<-0.22,0.04759727073072644,0.055188728028805555,0.0021372202725702277,0.04561948771663589,0.08206067413282779,0.0002875014080073559,0.0016313667484907772,0.0,0.0010192325198801909,0.07409116327921841,0.03235157850910839,0.011317733512608716,0.005225609150738685,0.017863581082890108,0.05195826553134003,0.0,0.2608114171613955,0.0014537304653453942,0.06255354583683971,0.24523247585025418,0.0015994180623166141,TARA_A100001518,(DCM) deep chlorophyll maximum layer (ENVO:01000326),Coastal Biome ,(RS) Red Sea [MRGID:4264],"(REDS) Red Sea, Persian Gulf Province [MRGID:21474]",23.38,37.29,85.5,26.1,40.2,180.0,1.2,0.01,0.03
TARA_032_SRF_0.22-1.6,0.05065138009152818,0.026801178352832595,0.003075834100090695,0.010205855789070344,0.010245035771929116,0.004937966699904466,0.20919392174352433,0.0004565683555161681,0.026162863605250525,0.3788629694796031,0.005163357967093353,0.01729260146600508,0.0028447929673917163,0.06354204711287048,0.038766189792279936,0.002543542294447713,0.040425155870623834,0.011073958286367074,0.004599765282717125,0.06052855741977554,0.03262645755117853,TARA_A100001035,(SRF) surface water layer (ENVO:00002042),Coastal Biome ,(RS) Red Sea [MRGID:4264],"(REDS) Red Sea, Persian Gulf Province [MRGID:21474]",23.36,37.22,5.4,25.8,39.7,188.4,-0.5,0.01,0.02
TARA_032_SRF_<-0.22,0.0026632134159391588,0.02845953369225003,0.0007840161592680769,0.0037235922778145053,0.06074284922328149,0.0033728820030949334,0.31601732798208687,0.0,0.03455593657374794,0.0060974835913822035,0.002794373810371869,0.00740003213826264,0.00971705400587034,0.00025709253788606354,0.003981675176007256,0.0,0.47490456943885634,0.0008116037292084296,0.0069199017894723235,0.035749416543589374,0.00104744591161012,TARA_A100001515,(SRF) surface water layer (ENVO:00002042),Coastal Biome ,(RS) Red Sea [MRGID:4264],"(REDS) Red Sea, Persian Gulf Province [MRGID:21474]",23.36,37.22,5.4,25.8,39.7,188.4,-0.5,0.01,0.02
TARA_033_SRF_0.22-1.6,0.06020834442221797,0.068224895168667,0.00412475987646188,0.02627699119201047,0.024320654713912735,0.005629000627989123,0.07335871700075912,0.00017059578090733617,0.01572505023336376,0.3045670364038984,0.022832157677967105,0.02971939355512399,0.008372021539918494,0.07104113113386813,0.03778220971497802,0.002516928522631491,0.05864850621654352,0.015469570436589156,0.008639355150834452,0.07229625580250124,0.09007642482885643,TARA_A100001234,(SRF) surface water layer (ENVO:00002042),Coastal Biome ,(RS) Red Sea [MRGID:4264],"(REDS) Red Sea, Persian Gulf Province [MRGID:21474]",21.98,38.24,5.4,27.3,38.9,182.8,0.0,0.0,0.05
TARA_034_DCM_0.22-1.6,0.06886214836519698,0.04925489336602982,0.0016609004871515015,0.015178806221741744,0.04911672096740056,0.0036075229199571154,0.04192835506949616,7.11097148089137e-05,0.003095841382207948,0.13661260797029914,0.03455557591952887,0.024627359130622334,0.010850162947678859,0.0423801137079819,0.05958614746135562,0.00031491057410546066,0.05021096260358288,0.011743852860513054,0.028824361679356897,0.15800878571549504,0.20950886093548934,TARA_B100000029,(DCM) deep chlorophyll maximum layer (ENVO:01000326),Coastal Biome ,(RS) Red Sea [MRGID:4264],"(REDS) Red Sea, Persian Gulf Province [MRGID:21474]",18.4,39.86,60.1,27.6,38.9,175.4,0.1,0.27,0.09
TARA_034_DCM_<-0.22,0.007821927637534287,0.03403556437615309,0.0032888938246844663,0.017365949966753207,0.18039070403462049,0.018692323008453055,0.2061123445125406,0.0,0.006852775988501675,0.01674525145172237,0.006695477034838316,0.017043483394931624,0.04259422720516082,0.002292785046221395,0.010434470667998083,0.0,0.3362219557790197,0.0009227099720210983,0.020756323260984044,0.06936024937877112,0.0023725834590906164,TARA_R100000008,(DCM) deep chlorophyll maximum layer (ENVO:01000326),Coastal Biome ,(RS) Red Sea [MRGID:4264],"(REDS) Red Sea, Persian Gulf Province [MRGID:21474]",18.4,39.86,60.1,27.6,38.9,175.4,0.1,0.27,0.09
TARA_034_SRF_0.1-0.22,0.015422462619164789,0.11017736307461658,0.00854181197742541,0.009552037708133015,0.06715009311598491,0.0200829751225338,0.05800682585054551,0.0001039208877426825,0.08269215961018843,0.044544343719581554,0.0119418559440315,0.013368313813083402,0.004802653531585106,0.008520134276853381,0.015121560919799389,0.0007875917903902987,0.3504971741233259,0.0073858058883785015,0.019885342226910303,0.057666445451558426,0.0937491283481671,TARA_Y100000004,(SRF) surface water layer (ENVO:00002042),Coastal Biome ,(RS) Red Sea [MRGID:4264],"(REDS) Red Sea, Persian Gulf Province [MRGID:21474]",18.4,39.88,5.4,27.6,38.6,184.1,-0.9,0.02,0.19
TARA_034_SRF_0.22-1.6,0.06121462012057437,0.0732987780781459,0.0065291294230236906,0.03596700712362407,0.025737590682394503,0.013893366115671865,0.05402798516950617,0.00032761320985345285,0.011829278122284756,0.2328608624475005,0.020320513254524067,0.039509401526875744,0.006991478867182334,0.05695865906452032,0.05155072495671207,0.005308455592200223,0.06127437278207771,0.019890029684124774,0.010265973693549897,0.08833115153044081,0.12391300855521269,TARA_B100000003,(SRF) surface water layer (ENVO:00002042),Coastal Biome ,(RS) Red Sea [MRGID:4264],"(REDS) Red Sea, Persian Gulf Province [MRGID:21474]",18.4,39.88,5.4,27.6,38.6,184.1,-0.9,0.02,0.19
TARA_034_SRF_<-0.22,0.014988570065831236,0.07485616395316477,0.008865393553395473,0.04314267505849403,0.10763537573041085,0.013052360385032179,0.026345515708494062,0.0,0.06784127771414461,0.06374816061244322,0.020069990406273122,0.052498868382661004,0.018724397150112183,0.001812407067272729,0.030333490699852538,2.11631665763741e-05,0.2552273914138455,0.00358820787690421,0.040153207014727015,0.15501179997863995,0.0020835840617249276,TARA_R100000005,(SRF) surface water layer (ENVO:00002042),Coastal Biome ,(RS) Red Sea [MRGID:4264],"(REDS) Red Sea, Persian Gulf Province [MRGID:21474]",18.4,39.88,5.4,27.6,38.6,184.1,-0.9,0.02,0.19
TARA_036_DCM_0.22-1.6,0.05585896266199518,0.08559411072677263,0.004351688665536275,0.032053429431135524,0.029223755482970595,0.006895178803293006,0.036674994583009726,0.0004167022183569733,0.1445770756644573,0.21806878224674475,0.014425337004213324,0.036566370634640556,0.013522422929708422,0.04051251915947055,0.025328543531025954,0.002242150383612446,0.09314640208408201,0.014091053188164344,0.008743438081277288,0.06438036545305395,0.07332671706647928,TARA_B100000035,(DCM) deep chlorophyll maximum layer (ENVO:01000326),Coastal Biome ,(IO) Indian Ocean [MRGID:1904],(ARAB) Northwest Arabian Sea Upwelling Province [MRGID:21475],20.82,63.51,17.4,25.4,36.5,211.6,0.4,0.51,0.51
TARA_036_DCM_<-0.22,0.0016640719468117113,0.20135672827242815,0.0001267211571964214,0.0020195540170678586,0.021995395300067923,0.036241019806051405,0.03742927220213969,0.0,0.2364156414758781,0.004399761694037027,0.0011873139878203665,0.002640721197089119,0.0015661734195950093,0.0004048990794207773,0.0024065605420274328,0.0,0.4342990473820404,0.0,0.006985087984870498,0.008631798381605391,0.00023023215385259443,TARA_R100000030,(DCM) deep chlorophyll maximum layer (ENVO:01000326),Coastal Biome ,(IO) Indian Ocean [MRGID:1904],(ARAB) Northwest Arabian Sea Upwelling Province [MRGID:21475],20.82,63.51,17.4,25.4,36.5,211.6,0.4,0.51,0.51
TARA_036_SRF_0.1-0.22,0.005140666091520939,0.07581384329980734,0.0019699181343713896,0.0038621940173909,0.011309415623889775,0.013127763483281192,0.011171313762327124,0.0,0.3402161858336422,0.01039088651237125,0.0014071799206345026,0.006155573906747178,0.0013633741689141048,0.0043512982853300165,0.0031359860864683346,0.0002754791937722809,0.46291951655868785,0.0013632832786384325,0.00564321466379905,0.017883881469461183,0.02249902570894498,TARA_Y100000015,(SRF) surface water layer (ENVO:00002042),Coastal Biome ,(IO) Indian Ocean [MRGID:1904],(ARAB) Northwest Arabian Sea Upwelling Province [MRGID:21475],20.82,63.5,5.5,25.6,36.5,210.9,,0.05,0.37
TARA_036_SRF_0.22-1.6,0.04391399141614677,0.08663661966209071,0.0033137226680528225,0.04276539087903301,0.036252258394923215,0.0049374077098943035,0.043941388128611765,0.00018451816992724217,0.13993819267488594,0.22629775321210055,0.014945527876011519,0.037780227854808605,0.012550131344313263,0.04424218783650235,0.01681502229476297,0.0012711357327831513,0.1076508152680737,0.011915369193317663,0.010262869589089502,0.06009929346522967,0.054286176629441324,TARA_Y100000022,(SRF) surface water layer (ENVO:00002042),Coastal Biome ,(IO) Indian Ocean [MRGID:1904],(ARAB) Northwest Arabian Sea Upwelling Province [MRGID:21475],20.82,63.5,5.5,25.6,36.5,210.9,,0.05,0.37
TARA_036_SRF_<-0.22,0.019346713461623213,0.1478799047891558,0.0006529902784881212,0.030657215560038257,0.07019582882677383,0.029384263288016424,0.013232060440138685,0.0,0.08713750339693521,0.035955520847715146,0.01998468694454937,0.03942389978145118,0.00690882916613383,0.001546649993168882,0.014599591020177997,0.0,0.30450341087475397,0.00037912370875997636,0.022250554329633136,0.1556931744281491,0.0002680788643378132,TARA_R100000027,(SRF) surface water layer (ENVO:00002042),Coastal Biome ,(IO) Indian Ocean [MRGID:1904],(ARAB) Northwest Arabian Sea Upwelling Province [MRGID:21475],20.82,63.5,5.5,25.6,36.5,210.9,,0.05,0.37
TARA_037_MES_0.1-0.22,0.059351206802920664,0.028704176131694042,0.0019106507307172316,0.010265617734046543,0.04995900025496202,0.0008636320067479985,0.023022639604138563,2.7642538392018754e-06,0.00669640293109107,0.16769114247875072,0.027628654925817203,0.029255057588326302,0.029835544268415944,0.020317310514480318,0.026685953414603572,1.8356686858695952e-05,0.11869985749250583,0.0024302984976308827,0.030446562521770405,0.18091983320840227,0.18529533795228031,TARA_Y100000310,(MES) mesopelagic zone (ENVO:00000213) & marine oxygen minimum zone (ENVO:01000065),Coastal Biome ,(IO) Indian Ocean [MRGID:1904],(ARAB) Northwest Arabian Sea Upwelling Province [MRGID:21475],20.83,63.61,595.1,12.1,35.7,1.6,31.8,0.07,2.91
TARA_037_MES_0.22-1.6,0.10449824967295923,0.02188070499884954,0.008989184263901044,0.006625098235024339,0.04514427591871601,0.0007802008565122254,0.022285507079453357,0.0,0.005611646987420935,0.35998652314922475,0.028105817438491616,0.010785405254516354,0.060021729951307466,0.01062509314244376,0.033662915221995264,3.889890630364201e-06,0.07004205726407861,0.007184065515533642,0.015441957573795033,0.11155280371230072,0.07677287387284579,TARA_B100000315,(MES) mesopelagic zone (ENVO:00000213) & marine oxygen minimum zone (ENVO:01000065),Coastal Biome ,(IO) Indian Ocean [MRGID:1904],(ARAB) Northwest Arabian Sea Upwelling Province [MRGID:21475],20.83,63.61,595.1,12.1,35.7,1.6,31.8,0.07,2.91
TARA_038_DCM_0.22-1.6,0.0505124518767809,0.07576793169398142,0.005966891925838739,0.01433558317692444,0.020271712585824418,0.013154253767903495,0.07008597666302772,0.00013201516574347532,0.01975107315360448,0.2819184196813186,0.021640184111752184,0.035670562521362865,0.007102555253096956,0.05825706168662281,0.05529723631220461,0.004295819133736152,0.0830976331525078,0.012892072200459107,0.015576213447464812,0.07945333970721388,0.07482101278263108,TARA_B100000073,(DCM) deep chlorophyll maximum layer (ENVO:01000326),Trades Biome,(IO) Indian Ocean [MRGID:1904],(MONS) Indian Monsoon Gyres Province [MRGID:21471],19.03,64.62,25.3,25.5,,154.7,1.2,0.7,0.42
TARA_038_DCM_<-0.22,0.008394167233094614,0.1085768358722359,0.0018656634350382591,0.04595337508236193,0.058046112080909804,0.017785350369401477,0.006365543069912233,0.0,0.2059576952505626,0.02570717408377929,0.006207382077376493,0.035802215640644945,0.005468715775289546,0.0008759852090420908,0.01697076734399979,0.0,0.3510420343118361,0.00013031329154567157,0.021870301086382143,0.0825969985226277,0.00038337026395942226,TARA_R100000084,(DCM) deep chlorophyll maximum layer (ENVO:01000326),Trades Biome,(IO) Indian Ocean [MRGID:1904],(MONS) Indian Monsoon Gyres Province [MRGID:21471],19.03,64.62,25.3,25.5,,154.7,1.2,0.7,0.42
TARA_038_MES_0.1-0.22,0.019127717217819085,0.028709392245131478,0.018716262683866013,0.03238451030859203,0.07299420250425703,0.0012185315445000617,0.01030299217727322,8.34889015212969e-06,0.005707505257803561,0.10709027386397173,0.034182876384454254,0.07956692931369663,0.02616195276809986,0.0049010647472776375,0.039902606540616135,4.051914952639194e-06,0.22526381332041362,0.0004331514466584365,0.062004798798141435,0.18574735829188055,0.045571659780442475,TARA_Y100000296,(MES) mesopelagic zone (ENVO:00000213) & marine oxygen minimum zone (ENVO:01000065),Trades Biome,(IO) Indian Ocean [MRGID:1904],(MONS) Indian Monsoon Gyres Province [MRGID:21471],19.01,64.57,337.7,15.0,36.0,2.4,22.4,0.69,2.64
TARA_038_MES_0.22-1.6,0.11085433452092006,0.01932004025481183,0.009939863130774274,0.005018461447978064,0.04240356641792983,0.0006865737564401219,0.023910624042243325,0.0,0.0060726915281258155,0.40947233967555824,0.025395766110674664,0.011005367159754403,0.06461983719523202,0.008167409556908659,0.03477644063059513,0.0,0.07038994631940933,0.007877796145535533,0.01761988605337723,0.08528328979503576,0.04718576625869579,TARA_Y100000294,(MES) mesopelagic zone (ENVO:00000213) & marine oxygen minimum zone (ENVO:01000065),Trades Biome,(IO) Indian Ocean [MRGID:1904],(MONS) Indian Monsoon Gyres Province [MRGID:21471],19.01,64.57,337.7,15.0,36.0,2.4,22.4,0.69,2.64
TARA_038_SRF_0.1-0.22,0.004581370129072274,0.09112667769882644,0.0051931222932481355,0.007040118497659575,0.024366085381236417,0.014719163885325253,0.024566292752561596,9.002582949757046e-05,0.23652299122878626,0.01739355567157859,0.0038167134243243007,0.020721475110553025,0.004377524077001394,0.002537537405158637,0.011246802976664288,0.0006143652292680284,0.41690193114221374,0.0003979760207143342,0.02021871341316317,0.042595006625919224,0.050972551207227684,TARA_Y100000289,(SRF) surface water layer (ENVO:00002042),Trades Biome,(IO) Indian Ocean [MRGID:1904],(MONS) Indian Monsoon Gyres Province [MRGID:21471],19.04,64.49,5.5,26.2,36.6,199.9,0.9,0.01,0.32
TARA_038_SRF_0.22-1.6,0.05859473160720225,0.0782762928141552,0.0028582544646034913,0.025914720867476447,0.019368834804125153,0.005567197051466232,0.059910883109429894,0.00026377205639294333,0.02348502644439868,0.2997463863432126,0.013294012238530854,0.030500963295234565,0.007724918003726824,0.06320212547570214,0.027581989561171548,0.0019973114193565763,0.10091874407239186,0.014938405716864972,0.011077299339335973,0.0772204933187675,0.07755763799645414,TARA_Y100000287,(SRF) surface water layer (ENVO:00002042),Trades Biome,(IO) Indian Ocean [MRGID:1904],(MONS) Indian Monsoon Gyres Province [MRGID:21471],19.04,64.49,5.5,26.2,36.6,199.9,0.9,0.01,0.32
TARA_038_SRF_<-0.22,0.010275442259645823,0.07002726552598577,0.004874450222963432,0.02489809738461474,0.06312408961427007,0.015578088071963375,0.01626531449518324,0.0,0.19813781975659747,0.02606832664113231,0.01659008643357947,0.024413703253523374,0.006822907739675694,0.0015221243483875115,0.03217303673591413,0.00010867967596004989,0.37895016978224844,0.0010005201607840497,0.02671648243049009,0.08104127148325033,0.0014121239838307468,TARA_R100000081,(SRF) surface water layer (ENVO:00002042),Trades Biome,(IO) Indian Ocean [MRGID:1904],(MONS) Indian Monsoon Gyres Province [MRGID:21471],19.04,64.49,5.5,26.2,36.6,199.9,0.9,0.01,0.32
TARA_039_DCM_0.22-1.6,0.04615876671253516,0.08347246024374183,0.005072078250632676,0.018773079729371197,0.019568013228602032,0.014040226974961116,0.08011600652727381,0.0006386309001855938,0.023366653084259524,0.3035140022190823,0.01383279732731553,0.03609754510824743,0.007551757891220548,0.047229109753393325,0.05077763725207083,0.005063566054195751,0.08751161534434973,0.016652526237550543,0.013003401264391002,0.06280101988785464,0.06475910600876536,TARA_B100000085,(DCM) deep chlorophyll maximum layer (ENVO:01000326),Trades Biome,(IO) Indian Ocean [MRGID:1904],(MONS) Indian Monsoon Gyres Province [MRGID:21471],18.57,66.49,25.3,26.8,36.3,193.0,-0.6,0.02,0.26
TARA_039_DCM_<-0.22,0.007502145830808694,0.09775196528885464,0.0041310082303594115,0.01337707517479188,0.07203968906944984,0.005157533036410563,0.027818329370358448,0.0,0.23198769967335447,0.014632083880851883,0.00559804059509765,0.024496308714610872,0.010250014773584346,0.0012191043226619834,0.01663277156326401,1.3497817631598958e-05,0.37363048840669766,0.0002353712164417005,0.032029644297808496,0.059655046707032686,0.0018421820299291693,TARA_R100000482,(DCM) deep chlorophyll maximum layer (ENVO:01000326),Trades Biome,(IO) Indian Ocean [MRGID:1904],(MONS) Indian Monsoon Gyres Province [MRGID:21471],18.57,66.49,25.3,26.8,36.3,193.0,-0.6,0.02,0.26
TARA_039_MES_0.1-0.22,0.04704457939928657,0.019511151383579537,0.002570735002949923,0.012131081243192695,0.036313675335820146,0.000666776264290703,0.009781610196414282,0.0,0.010767572006324609,0.15498867725582968,0.01640520550859509,0.025573438385604278,0.03093027222404636,0.013811462159194564,0.03209161508679121,0.0,0.16746566733483173,0.0016693400332999436,0.043304551055539604,0.20193229477334426,0.17304029535106497,TARA_Y100000034,(MES) mesopelagic zone (ENVO:00000213) & marine oxygen minimum zone (ENVO:01000065),Trades Biome,(IO) Indian Ocean [MRGID:1904],(MONS) Indian Monsoon Gyres Province [MRGID:21471],18.72,66.36,268.2,15.6,35.9,2.3,19.6,2.07,2.64
TARA_039_MES_0.22-1.6,0.10577865776508787,0.01696615564750221,0.011403800905068148,0.005496702767223461,0.0415887458940867,0.0006260672156295984,0.02258604449299349,0.0,0.00666677871622468,0.40393786492142364,0.025838248554118735,0.0117066477604883,0.0657094993242726,0.00712919887527954,0.03237421490619823,4.4632383956884e-06,0.07386284989549646,0.008803625784902827,0.01725715563871411,0.09237574124951863,0.049887536447375105,TARA_Y100000031,(MES) mesopelagic zone (ENVO:00000213) & marine oxygen minimum zone (ENVO:01000065),Trades Biome,(IO) Indian Ocean [MRGID:1904],(MONS) Indian Monsoon Gyres Province [MRGID:21471],18.72,66.36,268.2,15.6,35.9,2.3,19.6,2.07,2.64
TARA_039_SRF_0.1-0.22,0.007984274760418,0.08705402401674232,0.005712581591766904,0.015045090706770887,0.04457765480431163,0.004788870866022947,0.03733907702975953,0.0,0.17612282785715985,0.050968127413231555,0.005435222268933664,0.06085366669448388,0.014624472118788343,0.0018300257468978267,0.02370346227670737,3.682866015146304e-05,0.32019186525535265,0.00038712077969589836,0.03722767266557657,0.08200861379781524,0.02410852068941347,TARA_Y100000033,(SRF) surface water layer (ENVO:00002042),Trades Biome,(IO) Indian Ocean [MRGID:1904],(MONS) Indian Monsoon Gyres Province [MRGID:21471],18.57,66.53,5.4,26.8,36.3,193.4,-1.4,0.01,0.23
TARA_039_SRF_<-0.22,0.012340632197983974,0.07947843551962872,0.006474178923729798,0.015678003002887932,0.08141139882941364,0.0034097768826246806,0.019795408823318043,0.0,0.2354208923013382,0.021907275739122208,0.014186941498581459,0.028943377628120135,0.015238907961108227,0.0014548284918435642,0.021686652311129272,9.87302902089147e-06,0.3187148575291985,0.000292354027299602,0.03540249339393435,0.08283495089214805,0.005318761017568772,TARA_R100000479,(SRF) surface water layer (ENVO:00002042),Trades Biome,(IO) Indian Ocean [MRGID:1904],(MONS) Indian Monsoon Gyres Province [MRGID:21471],18.57,66.53,5.4,26.8,36.3,193.4,-1.4,0.01,0.23
TARA_041_DCM_0.22-1.6,0.051356041008295925,0.05711078457295301,0.004821286262662166,0.035361723229485414,0.025463432299404322,0.012248026316569165,0.10947401012588742,4.206655730330478e-05,0.020367434883763018,0.20569903856533436,0.010603708005439087,0.039400667162308646,0.01114329856016914,0.03526094355677382,0.0478384972605564,0.004405779079181005,0.0743009967438406,0.016127681998444304,0.011825358357583875,0.1070799782954954,0.12006924715854957,TARA_B100000287,(DCM) deep chlorophyll maximum layer (ENVO:01000326),Trades Biome,(IO) Indian Ocean [MRGID:1904],(MONS) Indian Monsoon Gyres Province [MRGID:21471],14.56,70.01,58.2,27.1,36.5,148.3,-0.2,0.07,0.34
TARA_041_DCM_<-0.22,0.08057134796523338,0.05137146827418317,0.009518835314751511,0.06295131534409366,0.11982208827746905,0.000892965092129725,0.02590184475282047,2.1102816067589934e-05,0.017264043321554946,0.07947921626444573,0.06513168081214407,0.026154196870817218,0.035587109728634735,0.0005930441240412181,0.030487020125787558,0.0,0.27058843900099816,0.00795923831489772,0.04079513510557279,0.07336688695426888,0.0015430215400884866,TARA_R100000458,(DCM) deep chlorophyll maximum layer (ENVO:01000326),Trades Biome,(IO) Indian Ocean [MRGID:1904],(MONS) Indian Monsoon Gyres Province [MRGID:21471],14.56,70.01,58.2,27.1,36.5,148.3,-0.2,0.07,0.34
TARA_041_SRF_0.1-0.22,0.010317456589909681,0.06206579105905938,0.004052968107961008,0.04167739483255289,0.05287415123192453,0.0003788647743967077,0.10327115505235153,0.0,0.011704822485180831,0.09746280559503821,0.012681807574407131,0.1037266685903312,0.022769907725467345,0.0011685740621381582,0.03954672483747283,4.8787982061376026e-05,0.22599532676084683,0.00018284482824338822,0.048571716326316315,0.15925567629654191,0.002246555287798757,TARA_Y100000052,(SRF) surface water layer (ENVO:00002042),Trades Biome,(IO) Indian Ocean [MRGID:1904],(MONS) Indian Monsoon Gyres Province [MRGID:21471],14.6,69.98,5.5,29.1,36.0,187.4,-1.3,0.0,0.14
TARA_041_SRF_0.22-1.6,0.054435767665367285,0.036988331770035736,0.002405833501501444,0.022624624121097964,0.014528449560366391,0.0022075596474342915,0.11122074960287501,0.00034244920353672983,0.025518554724807598,0.40461014130513623,0.006431145400392681,0.018356015376104956,0.007043822688105643,0.06613479377156829,0.03227029283729855,0.0010536389772161877,0.06061735758869942,0.009112419232494218,0.005890783060590565,0.07638954466436221,0.04181772530100854,TARA_B100000282,(SRF) surface water layer (ENVO:00002042),Trades Biome,(IO) Indian Ocean [MRGID:1904],(MONS) Indian Monsoon Gyres Province [MRGID:21471],14.6,69.98,5.5,29.1,36.0,187.4,-1.3,0.0,0.14
TARA_041_SRF_<-0.22,0.008547234212134974,0.022577411033798813,0.007244631346190278,0.028460274484144194,0.06883856964931814,0.0009767092375943776,0.27106336866724473,0.0,0.02276993284033611,0.06796832706241135,0.016775993252114697,0.030298103956078803,0.020204393705540655,0.0010821583860397502,0.03396268580398823,0.0,0.26328751111456206,0.0004628767086837357,0.057951341576754044,0.07568121315144288,0.0018472638116221653,TARA_R100000455,(SRF) surface water layer (ENVO:00002042),Trades Biome,(IO) Indian Ocean [MRGID:1904],(MONS) Indian Monsoon Gyres Province [MRGID:21471],14.6,69.98,5.5,29.1,36.0,187.4,-1.3,0.0,0.14
TARA_042_DCM_0.22-1.6,0.04475829128081949,0.05254565999311662,0.0026007313137435587,0.019984380904328514,0.022266181249293738,0.007393199064697659,0.18365109036958252,5.914144403914102e-05,0.026971846619658083,0.24161976129383145,0.011647427283663185,0.026560053960099902,0.01964827027405178,0.02684115625963358,0.04804319613545363,0.002618083931702232,0.06778423529009668,0.02149648145622316,0.008638471844920247,0.08469913914931759,0.0801732008817272,TARA_B100000131,(DCM) deep chlorophyll maximum layer (ENVO:01000326),Trades Biome,(IO) Indian Ocean [MRGID:1904],(MONS) Indian Monsoon Gyres Province [MRGID:21471],6.0,73.9,79.0,27.7,35.1,132.8,0.6,0.15,0.34
TARA_042_DCM_<-0.22,0.005197673860047257,0.03068446659381634,0.00480312626580576,0.013067467136378519,0.09621796497787341,0.00469279403925002,0.34278814750997405,0.0,0.020553708679567618,0.02057377425296171,0.007019318106984737,0.018660736770814347,0.05485525221431847,0.00012473792830324106,0.021185864143241095,0.0,0.28432005419960493,0.0005744487704921556,0.021461705119549312,0.0526005190631414,0.0006182403678756773,TARA_R100000152,(DCM) deep chlorophyll maximum layer (ENVO:01000326),Trades Biome,(IO) Indian Ocean [MRGID:1904],(MONS) Indian Monsoon Gyres Province [MRGID:21471],6.0,73.9,79.0,27.7,35.1,132.8,0.6,0.15,0.34
TARA_042_SRF_0.22-1.6,0.053970802829045476,0.03906378114787797,0.002551476285544309,0.022402173424096245,0.014224847369067971,0.002322626470431452,0.1309605874582587,0.0005730828199644737,0.02035548880100461,0.37588530011252347,0.007351161195065905,0.018287414653215133,0.006979104752310319,0.06192248543797742,0.03416559513515445,0.0010441738935620362,0.05825442454396334,0.010992509222901284,0.004377185338949758,0.0787537356460934,0.055562043462992136,TARA_B100000123,(SRF) surface water layer (ENVO:00002042),Trades Biome,(IO) Indian Ocean [MRGID:1904],(MONS) Indian Monsoon Gyres Province [MRGID:21471],6.03,73.89,5.4,30.0,34.6,189.3,-1.5,0.0,0.08
TARA_042_SRF_<-0.22,0.008125409321928177,0.009453713564128302,0.006813187580297232,0.0417762386972706,0.0909023901425308,0.0010006999533618399,0.11165697540343861,0.0,0.020019900559363927,0.11536434916761372,0.02773815165681828,0.02803431159029993,0.025201956153852328,0.0004978634753978422,0.03274697455745849,0.0,0.2605930866766356,0.0003246296165874665,0.11806319477642109,0.10095965597468717,0.0007273111319085724,TARA_R100000149,(SRF) surface water layer (ENVO:00002042),Trades Biome,(IO) Indian Ocean [MRGID:1904],(MONS) Indian Monsoon Gyres Province [MRGID:21471],6.03,73.89,5.4,30.0,34.6,189.3,-1.5,0.0,0.08
TARA_045_SRF_0.22-1.6,0.05337020730589657,0.02550417228068291,0.002200127752564,0.01564309602956832,0.008748227798708779,0.0016718237737495141,0.09607158371101707,0.0004616695001794544,0.028649798436117518,0.4904153463677428,0.0035293922498996176,0.01443041236674216,0.0054054737455753255,0.07779235317291944,0.0381063859901283,0.0010677983238942784,0.03357021848101001,0.004622524008566871,0.0030083106360414918,0.07251871184341536,0.02321236622558032,TARA_B100000161,(SRF) surface water layer (ENVO:00002042),Trades Biome,(IO) Indian Ocean [MRGID:1904],(MONS) Indian Monsoon Gyres Province [MRGID:21471],0.0,71.64,5.5,30.5,35.1,185.2,2.6,0.02,1.94
TARA_046_SRF_<-0.22,0.01486456624245757,0.05174870126846764,0.009551830061871847,0.03811992884500026,0.07764110557620818,0.016575410917430887,0.0733413502907548,0.0,0.048759892655074605,0.06726250922769611,0.016524348469991734,0.07819117096508973,0.018746261571824525,0.0009321826953539504,0.05796149244056585,6.329776939243682e-05,0.2093501020964725,0.0006343787764502201,0.04637363612771797,0.17186105192050724,0.0014967820816719206,TARA_R100000406,(SRF) surface water layer (ENVO:00002042),Trades Biome,(IO) Indian Ocean [MRGID:1904],(MONS) Indian Monsoon Gyres Province [MRGID:21471],-0.66,73.16,5.5,30.1,35.1,185.7,0.5,0.0,0.1
TARA_048_SRF_0.1-0.22,0.009572428118753395,0.02853166950481317,0.008318791621186882,0.01912867782626839,0.048356480234333504,0.001258350149549885,0.17691378202894165,4.393196237357486e-06,0.016399487401979527,0.07118592984688764,0.025887011643449243,0.04819913337796941,0.018013407696580483,0.007876001248762891,0.032321750383703704,0.00021564999773660608,0.3424068718069399,0.0007585407409738818,0.03556307335742509,0.10111232756894559,0.007976242248561744,TARA_Y100000114,(SRF) surface water layer (ENVO:00002042),Trades Biome,(IO) Indian Ocean [MRGID:1904],(ISSG) Indian South Subtropical Gyre Province [MRGID:21472],-9.39,66.42,5.4,29.8,34.2,187.3,-2.2,0.01,0.08
TARA_048_SRF_0.22-1.6,0.055930892170463056,0.02691087534228214,0.0022421179529082146,0.02175097481219026,0.008895976912304981,0.0012629941724591445,0.08811714714882467,0.0003556361126187232,0.02514588641816825,0.48862011963155394,0.002343638917195176,0.013309820522405156,0.006758506200476424,0.08230708662064845,0.03440831372872646,0.0009240791649289055,0.03127179732844235,0.004693873418169292,0.0019656107719895617,0.07551263041776783,0.02727202223547696,TARA_B100000242,(SRF) surface water layer (ENVO:00002042),Trades Biome,(IO) Indian Ocean [MRGID:1904],(ISSG) Indian South Subtropical Gyre Province [MRGID:21472],-9.39,66.42,5.4,29.8,34.2,187.3,-2.2,0.01,0.08
TARA_052_DCM_0.22-1.6,0.0615449666108991,0.03533966051720283,0.0019518053507641886,0.022581677405853255,0.01461298766584414,0.002051494188532416,0.08965460572785969,0.00010784438943775759,0.015045010368627019,0.3994847687212089,0.0036509063765311047,0.025355534896890037,0.00781180222850977,0.048366311574705896,0.02574227528816236,0.000926758868148608,0.0753500369107996,0.011818803680020369,0.005768169358621504,0.08110288240455117,0.07173169746683035,TARA_B100000214,(DCM) deep chlorophyll maximum layer (ENVO:01000326),Trades Biome,(IO) Indian Ocean [MRGID:1904],(ISSG) Indian South Subtropical Gyre Province [MRGID:21472],-16.96,54.01,79.0,24.9,34.9,192.6,0.2,0.03,0.18
TARA_052_DCM_<-0.22,0.001480828395804223,0.017565276330651674,0.0019907090054518354,0.004299133315043766,0.037857077487201816,0.0007423282706409914,0.2825298934017612,0.0,0.02791481354952536,0.029579321407197184,0.0018564089398156777,0.00701195087642212,0.018306430454500828,0.00015090086808216118,0.0050094026925225,0.0,0.5252583596740653,0.0002917250047037842,0.010234432866575431,0.027749594643949497,0.00017141281608472605,TARA_R100000234,(DCM) deep chlorophyll maximum layer (ENVO:01000326),Trades Biome,(IO) Indian Ocean [MRGID:1904],(ISSG) Indian South Subtropical Gyre Province [MRGID:21472],-16.96,54.01,79.0,24.9,34.9,192.6,0.2,0.03,0.18
TARA_052_SRF_0.22-1.6,0.06374164676338383,0.029543854919339533,0.0023133192750208766,0.02261731010597899,0.012523873970860628,0.0026716551411918588,0.07531175027946449,0.0003753452265125053,0.04331154381661841,0.45005088066252236,0.0026989852665727106,0.018581984370605695,0.006505285890394098,0.05829242706384381,0.020751386323378824,0.0006129145371411172,0.06277483279447342,0.00430413173360865,0.004992232086952853,0.07800230772602824,0.04002233204610707,TARA_B100000212,(SRF) surface water layer (ENVO:00002042),Trades Biome,(IO) Indian Ocean [MRGID:1904],(ISSG) Indian South Subtropical Gyre Province [MRGID:21472],-16.96,53.99,5.5,27.9,34.6,191.7,,0.0,0.12
TARA_056_MES_0.22-3,0.05409371238370131,0.04691928292515574,0.0031905811740316147,0.013558983588401755,0.0739372840403805,0.0009910091024171955,0.03809480385183736,3.0211428958141335e-05,0.011251546202922891,0.0992278404205004,0.045815713581631654,0.026614722466556787,0.009829811611623721,0.03299563593536536,0.03360190897235897,9.595122412570895e-05,0.061802644849564076,0.0031631588690520015,0.03156568455711314,0.21109058428843017,0.20212892852587144,TARA_B100000378,(MES) mesopelagic zone (ENVO:00000213),Coastal Biome ,(IO) Indian Ocean [MRGID:1904],(EAFR) Eastern Africa Coastal Province [MRGID:21473],-15.34,43.29,989.6,6.2,34.8,88.2,,,
TARA_056_SRF_0.22-3,0.0544708398616487,0.036391272567774934,0.0033936456977842803,0.01815828142744179,0.011398002397010032,0.0032773195002886103,0.12701294679449698,0.00040536858039686704,0.028820047635189496,0.4095925135478116,0.004869011509226251,0.018728761877629868,0.004547607355376688,0.06659784256702503,0.03753010622147478,0.0013214541444966476,0.043184138864028325,0.008552771275353655,0.004217153336093521,0.07072996767549815,0.04680094716395383,TARA_B000000609,(SRF) surface water layer (ENVO:00002042),Coastal Biome ,(IO) Indian Ocean [MRGID:1904],(EAFR) Eastern Africa Coastal Province [MRGID:21473],-15.34,43.29,5.5,27.3,35.0,193.1,,,
TARA_057_SRF_0.22-3,0.05234119055906841,0.05838145955124204,0.004883307764176143,0.019021530800380736,0.015987541850985682,0.007831538767964073,0.11572199393029033,0.0004696343860252752,0.022615281458506064,0.35456707401352644,0.014617833732483727,0.028273644603295008,0.00800566297343616,0.06010510518082009,0.04452065414188764,0.003929854421207131,0.056833247633332716,0.013753643512112843,0.0069069102727533594,0.059109228040970845,0.0521236624055353,TARA_B000000565,(SRF) surface water layer (ENVO:00002042),Coastal Biome ,(IO) Indian Ocean [MRGID:1904],(EAFR) Eastern Africa Coastal Province [MRGID:21473],-17.02,42.74,5.6,27.0,35.1,190.1,,0.02,0.0
TARA_058_DCM_0.22-3,0.052048611941796004,0.05310479143014595,0.003559962837151912,0.01697896372094988,0.016249769341171658,0.004682696361789623,0.14164004025691979,0.0005233922033244075,0.022414582985375364,0.35277412422945353,0.008972261730486477,0.025762899785310364,0.005912309044788294,0.0518736480820133,0.03962338882431106,0.001829070872676658,0.060186605567038615,0.01535991675620457,0.006508905582392764,0.06796149676098781,0.052032561685711944,TARA_B000000557,(DCM) deep chlorophyll maximum layer (ENVO:01000326),Coastal Biome ,(IO) Indian Ocean [MRGID:1904],(EAFR) Eastern Africa Coastal Province [MRGID:21473],-17.32,42.29,67.1,25.3,35.2,185.0,0.8,0.03,0.0
TARA_062_SRF_0.22-3,0.05491766355291314,0.04855254524787281,0.004433892549573769,0.023999890187704948,0.014218199094474856,0.005955084715799711,0.14043043207811254,0.0005754250701259839,0.02143941613415023,0.3354645106552573,0.008425461161071873,0.027831629177260574,0.005062313626861584,0.061799630901152626,0.03693028425142083,0.0018640817047291657,0.053914010359476475,0.012981070788360216,0.005061078567936409,0.07141943985915364,0.06472394031659137,TARA_B000000532,(SRF) surface water layer (ENVO:00002042),Coastal Biome ,(IO) Indian Ocean [MRGID:1904],(EAFR) Eastern Africa Coastal Province [MRGID:21473],-21.38,39.56,5.4,25.1,35.3,199.9,-0.2,,
TARA_064_DCM_0.1-0.22,0.008625048669193664,0.027720081794357067,0.0027531350044215515,0.005573900624026372,0.050591285206063735,0.005695786582837422,0.14627209907505392,0.0002448784014628466,0.04604842184568315,0.027331213105316384,0.0031661577791956934,0.014762568821598147,0.006056861047952421,0.008138346537849601,0.03297806435475703,0.002074635335950672,0.550784727595582,0.0011662195138824872,0.013397657256927282,0.026758383652271452,0.019860527795616954,TARA_Y100000401,(DCM) deep chlorophyll maximum layer (ENVO:01000326),Coastal Biome ,(IO) Indian Ocean [MRGID:1904],(EAFR) Eastern Africa Coastal Province [MRGID:21473],-29.54,37.94,63.6,22.3,35.3,207.4,-0.1,0.0,0.08
TARA_064_DCM_0.22-3,0.06000574494465492,0.057900340154960706,0.0075527708140657925,0.02751203560588515,0.01723427741533979,0.024211434501129496,0.04601035479548265,0.0016042377533626217,0.007752554174791748,0.23061671034343398,0.012380518671152111,0.06399365192674727,0.007254288017572442,0.05404070609343183,0.07847946952502337,0.008404918509713184,0.057079574245627894,0.014186003523408139,0.012793052293904237,0.10094267372587301,0.11004468296443974,TARA_B100000405,(DCM) deep chlorophyll maximum layer (ENVO:01000326),Coastal Biome ,(IO) Indian Ocean [MRGID:1904],(EAFR) Eastern Africa Coastal Province [MRGID:21473],-29.54,37.94,63.6,22.3,35.3,207.4,-0.1,0.0,0.08
TARA_064_DCM_<-0.22,0.0063288791374992584,0.027074034887282487,0.003094955142900848,0.007838195549336305,0.06906503994026962,0.00015030185042979382,0.17606977468995452,0.0,0.04332892254793141,0.011178065675827588,0.006904673278518396,0.007166008702800054,0.007980389221192435,0.0019067570570149488,0.006042156826299643,0.0,0.5801289265118051,0.0001038649842410938,0.01579380282029461,0.029539818835597656,0.00030543234080392887,TARA_R100000315,(DCM) deep chlorophyll maximum layer (ENVO:01000326),Coastal Biome ,(IO) Indian Ocean [MRGID:1904],(EAFR) Eastern Africa Coastal Province [MRGID:21473],-29.54,37.94,63.6,22.3,35.3,207.4,-0.1,0.0,0.08
TARA_064_MES_0.22-3,0.0661156357920591,0.04512181765338328,0.0011551421041948522,0.0070904461464727404,0.06752129120617105,0.0012475830832164667,0.0335248358781937,7.14289535062906e-06,0.0070538885996829954,0.12329005169620953,0.04365051762049097,0.01594298950451511,0.009174927891610389,0.034942529059133705,0.03800479286947439,4.3059810150465074e-05,0.05376075842702264,0.005923582981237444,0.02664050783233457,0.18222888037164878,0.2375596185774472,TARA_B100000408,(MES) mesopelagic zone (ENVO:00000213),Coastal Biome ,(IO) Indian Ocean [MRGID:1904],(EAFR) Eastern Africa Coastal Province [MRGID:21473],-29.51,37.94,990.8,7.7,34.6,193.0,,0.0,1.12
TARA_064_SRF_0.22-3,0.06210394589012869,0.0425125233549072,0.004509173637731647,0.01841738931403976,0.013370124416919558,0.009228700540954976,0.07870344321968188,0.000295684114844969,0.02101616164205615,0.36521229766148755,0.006485350503885551,0.031598880866900096,0.00523021201099165,0.07113862462536666,0.05381837340169192,0.0033897016401006333,0.04190543647058519,0.011289500796480575,0.006638333815265377,0.0830875142824981,0.07004862779348192,TARA_B100000401,(SRF) surface water layer (ENVO:00002042),Coastal Biome ,(IO) Indian Ocean [MRGID:1904],(EAFR) Eastern Africa Coastal Province [MRGID:21473],-29.5,37.99,5.5,22.2,35.3,210.0,,0.0,0.08
TARA_064_SRF_<-0.22,0.0223842914443506,0.03356270209110508,0.006382195255166553,0.07253429496718451,0.08972241868498365,0.005915363634841357,0.08554192200016686,0.0,0.029853794431810896,0.048604447704530346,0.020886950443850926,0.07366727193604872,0.01880215974495335,0.0016107584176808785,0.038118917602343094,1.4721198783024414e-05,0.2075339078115319,0.0025289262035081235,0.03947641623363774,0.20197844438933876,0.0008800958041836689,TARA_R100000322,(SRF) surface water layer (ENVO:00002042),Coastal Biome ,(IO) Indian Ocean [MRGID:1904],(EAFR) Eastern Africa Coastal Province [MRGID:21473],-29.5,37.99,5.5,22.2,35.3,210.0,,0.0,0.08
TARA_065_DCM_0.1-0.22,0.013718171149706332,0.05442339433251542,0.0015340016169066372,0.0084046929221431,0.050604917679956826,0.0041613612713539555,0.17429608800672725,7.789850259489374e-05,0.07238631137770345,0.03192374785250003,0.003467167928505385,0.013000373974839005,0.007941798810248766,0.010870366798907061,0.04463789443426739,0.0012635799837155154,0.42046302468784874,0.00268755511565288,0.020466322818625666,0.03267985824567803,0.030991472489603645,TARA_Y100000361,(DCM) deep chlorophyll maximum layer (ENVO:01000326),Coastal Biome ,(IO) Indian Ocean [MRGID:1904],(EAFR) Eastern Africa Coastal Province [MRGID:21473],-35.25,26.31,28.7,21.8,,206.4,,,
TARA_065_DCM_0.22-3,0.06647370908588636,0.06761431556555003,0.0068688723180990174,0.024039104169851708,0.03230154385616161,0.01521678637176139,0.03723358043572179,0.0006377047291445014,0.0056954934530504455,0.18587892430588018,0.020753746899729336,0.05652474000173101,0.01123330082307726,0.05049509803727577,0.06438244411828851,0.004948005807457932,0.07536387048612152,0.017495237642118074,0.016128307178227868,0.11008878137971537,0.1306264333351504,TARA_B000000441,(DCM) deep chlorophyll maximum layer (ENVO:01000326),Coastal Biome ,(IO) Indian Ocean [MRGID:1904],(EAFR) Eastern Africa Coastal Province [MRGID:21473],-35.25,26.31,28.7,21.8,,206.4,,,
TARA_065_DCM_<-0.22,0.01745660168267111,0.03109503189492588,0.008823391200815106,0.033818122382598785,0.09010034788636037,0.0015145943135086554,0.033166052571787695,0.0,0.07134856678626103,0.03860831047888776,0.019489976247798725,0.03773924909519279,0.016649330424334592,0.0036683904795667436,0.038009718767573024,4.222444485405629e-05,0.35879397559604337,0.0003567435410141936,0.05061143933810347,0.14557832163322473,0.0031296112344778317,TARA_R100001198,(DCM) deep chlorophyll maximum layer (ENVO:01000326),Coastal Biome ,(IO) Indian Ocean [MRGID:1904],(EAFR) Eastern Africa Coastal Province [MRGID:21473],-35.25,26.31,28.7,21.8,,206.4,,,
TARA_065_MES_0.22-3,0.06489360066325647,0.04627686429516071,0.0015711693414546244,0.007714881954413384,0.06817066142036121,0.001161621248414782,0.03280057145611801,4.707397060344716e-06,0.006913202051094446,0.1179501243380923,0.045175328594612214,0.01898183587857555,0.008875904808220396,0.034877005316647135,0.037978209854016766,3.3306570058667286e-05,0.05260349358824851,0.006164565138923653,0.026827888483065533,0.18526743248942165,0.23575762511278361,TARA_B000000460,(MES) mesopelagic zone (ENVO:00000213),Coastal Biome ,(IO) Indian Ocean [MRGID:1904],(EAFR) Eastern Africa Coastal Province [MRGID:21473],-35.23,26.33,842.2,8.4,34.7,198.0,,,
TARA_065_SRF_0.1-0.22,0.010369107347061224,0.05834505379121978,0.0017216563541466458,0.004836481729516975,0.05273430582651486,0.0034733899611317366,0.21424940228238298,7.564248771777733e-05,0.07621610725056843,0.02016404482385167,0.001535862880347437,0.007557018227788848,0.007528600453540041,0.00676209981983167,0.046895715523500046,0.0012286212937414117,0.42185922375630497,0.0021828289601399393,0.019176284803088278,0.020767643929596024,0.022320908498009315,TARA_Y100000356,(SRF) surface water layer (ENVO:00002042),Coastal Biome ,(IO) Indian Ocean [MRGID:1904],(EAFR) Eastern Africa Coastal Province [MRGID:21473],-35.19,26.29,5.9,21.8,35.4,207.0,,,
TARA_065_SRF_0.22-3,0.07370924459273256,0.07097556432205675,0.0066768480360023495,0.022413698053555794,0.03050752563695652,0.017331044456951657,0.047108650457961324,0.0006296122593597983,0.005829822082583398,0.19291774505360557,0.015035807350369463,0.05320722098486208,0.007783793399129417,0.04803498328914079,0.07474343690781693,0.005892465998162282,0.05802387328865686,0.018732864192915435,0.013601881159106865,0.10701626509073878,0.12982765338733526,TARA_B000000437,(SRF) surface water layer (ENVO:00002042),Coastal Biome ,(IO) Indian Ocean [MRGID:1904],(EAFR) Eastern Africa Coastal Province [MRGID:21473],-35.19,26.29,5.9,21.8,35.4,207.0,,,
TARA_065_SRF_<-0.22,0.017903155211070734,0.026901913268584286,0.007362174983239206,0.027945517693455976,0.09642777011371714,0.0007018192519385788,0.02978615825704501,8.278050402265899e-06,0.07233695782226396,0.03003921811158287,0.03601934313091257,0.03120723199970451,0.01045152548365487,0.004015244500947403,0.027606899157985167,4.2200667572030643e-05,0.402800067519242,0.0007177808526210329,0.046346377929790135,0.12807849776051203,0.003301868233758163,TARA_R100001230,(SRF) surface water layer (ENVO:00002042),Coastal Biome ,(IO) Indian Ocean [MRGID:1904],(EAFR) Eastern Africa Coastal Province [MRGID:21473],-35.19,26.29,5.9,21.8,35.4,207.0,,,
TARA_066_DCM_0.22-3,0.09196771991145161,0.05802756066500933,0.006514262002286951,0.013661504080882063,0.0281219779713811,0.01606432423152664,0.030362029120970715,0.0003554783952468024,0.004163164376770103,0.14830894373287523,0.015652690142357734,0.053260414745674896,0.008559860296787881,0.042162213437433295,0.08299241057624807,0.007700830413109018,0.04387576073256773,0.015302997301281016,0.018444008820470453,0.142352040511348,0.17214980853432132,TARA_B000000477,(DCM) deep chlorophyll maximum layer (ENVO:01000326),Coastal Biome ,(SAO) South Atlantic Ocean [MRGID:1914],(BENG) Benguela Current Coastal Province [MRGID:21470],-34.89,18.07,28.6,15.0,35.3,240.4,,0.26,0.37
TARA_066_DCM_<-0.22,0.016103348372780744,0.06128332018200637,0.03871486521004559,0.0388515594761419,0.1273531851496337,0.003971270216283484,0.04056691833552229,0.0,0.03393695599666402,0.0799068810290735,0.022322975030413316,0.046489174140962625,0.02786969616241731,0.001454898076572054,0.04853662774050817,7.96401261091728e-06,0.18526134787531523,0.0007780168173882242,0.04772301367352826,0.17671802341251747,0.0021499590896147517,TARA_R100000908,(DCM) deep chlorophyll maximum layer (ENVO:01000326),Coastal Biome ,(SAO) South Atlantic Ocean [MRGID:1914],(BENG) Benguela Current Coastal Province [MRGID:21470],-34.89,18.07,28.6,15.0,35.3,240.4,,0.26,0.37
TARA_066_SRF_0.22-3,0.09149925495328466,0.060294639213049527,0.005654395608815837,0.01676963191048946,0.027178994087916204,0.016901541635287422,0.028765056192470627,0.00040400043092147657,0.0029022637524913817,0.14344377541396194,0.014423527380292265,0.05445128544010066,0.008863050084737126,0.04022243955235377,0.0813712721086767,0.007095527915371074,0.04747556198107624,0.016255317428168953,0.017928733079659715,0.14654674591051015,0.17155298592036475,TARA_B000000475,(SRF) surface water layer (ENVO:00002042),Coastal Biome ,(SAO) South Atlantic Ocean [MRGID:1914],(BENG) Benguela Current Coastal Province [MRGID:21470],-34.94,17.94,5.4,15.0,35.3,238.9,2.5,0.3,0.34
TARA_066_SRF_<-0.22,0.02469296402099017,0.04586652724288381,0.02567177228399483,0.061119644119447314,0.1048035462136762,0.004835154237864897,0.020162201708270662,0.0,0.030914836423143435,0.06974507226839032,0.02467347564827109,0.05636023138452848,0.02903732472357248,0.0014454833318166725,0.0472649601457699,0.00013732135183164114,0.18801914859500254,0.006325331809922295,0.04739763319430768,0.20844130008373746,0.0030860712125782164,TARA_R100000900,(SRF) surface water layer (ENVO:00002042),Coastal Biome ,(SAO) South Atlantic Ocean [MRGID:1914],(BENG) Benguela Current Coastal Province [MRGID:21470],-34.94,17.94,5.4,15.0,35.3,238.9,2.5,0.3,0.34
TARA_067_SRF_0.22-0.45,0.1100323139276671,0.12258770786746957,0.007293047834690761,0.00639813046095831,0.04985861365831163,0.025678210449706456,0.025692683159453323,6.450253569664085e-06,0.00631715688746366,0.15174272047139975,0.009755837859443122,0.019857082570607667,0.0076330195672080076,0.012520058187825634,0.07950255118838637,0.0045174952699986145,0.1164863256674288,0.07089806557530903,0.020811180394826666,0.06939175886708093,0.0830195898811948,TARA_Y100000389,(SRF) surface water layer (ENVO:00002042),Coastal Biome ,(SAO) South Atlantic Ocean [MRGID:1914],(BENG) Benguela Current Coastal Province [MRGID:21470],-32.23,17.71,5.5,12.8,34.8,249.4,0.4,0.17,1.02
TARA_067_SRF_0.22-3,0.06597887838769706,0.08888877608028731,0.0080115092370256,0.025452995816431723,0.054205016299180585,0.021557040088565713,0.034855993876429,0.0003113745934719164,0.02021614545621668,0.14224094844652962,0.016988181799344543,0.07321758879332349,0.014839436351390805,0.01793419941592483,0.07510461835203255,0.00735503366135958,0.09150315063582506,0.01839112538114601,0.03371666740429594,0.12745738219256236,0.0617739377309596,TARA_B100000497,(SRF) surface water layer (ENVO:00002042),Coastal Biome ,(SAO) South Atlantic Ocean [MRGID:1914],(BENG) Benguela Current Coastal Province [MRGID:21470],-32.23,17.71,5.5,12.8,34.8,249.4,0.4,0.17,1.02
TARA_067_SRF_0.45-0.8,0.07348932134711657,0.10313042736499321,0.004203960451404616,0.026989542409347755,0.05940454503768887,0.010554446563627173,0.051159686093459014,7.185779007705979e-06,0.02638309569131743,0.13096226650532733,0.013519819223094847,0.0736816989043908,0.019937868531618785,0.013458592875187714,0.05202693042127823,0.002748991589487418,0.10630104993358322,0.022083901203221828,0.035900024865528735,0.12200579664557422,0.05205084856374454,TARA_Y100000385,(SRF) surface water layer (ENVO:00002042),Coastal Biome ,(SAO) South Atlantic Ocean [MRGID:1914],(BENG) Benguela Current Coastal Province [MRGID:21470],-32.23,17.71,5.5,12.8,34.8,249.4,0.4,0.17,1.02
TARA_067_SRF_<-0.22,0.012593562987626837,0.034955001725361735,0.008586669820432742,0.0188210720270617,0.06793428544143765,0.004720699421312721,0.002174056916395689,0.0,0.1331423388467548,0.026768969297606693,0.008496733667062677,0.01941096007007012,0.016359625582968898,0.0027374050374904,0.040060529034501594,3.1321784191427276e-05,0.48607642042045857,0.0011820533591497138,0.042969377929173595,0.07074863225806474,0.002230284372877653,TARA_R100000951,(SRF) surface water layer (ENVO:00002042),Coastal Biome ,(SAO) South Atlantic Ocean [MRGID:1914],(BENG) Benguela Current Coastal Province [MRGID:21470],-32.23,17.71,5.5,12.8,34.8,249.4,0.4,0.17,1.02
TARA_068_DCM_0.22-0.45,0.08387204190877934,0.05780082513432104,0.0018365600507519036,0.011109420252756139,0.03830321329038389,0.002991454308240273,0.027682316038380502,3.611525677049006e-05,0.008947638412675736,0.1413442775083096,0.02906752530331348,0.03901088267283305,0.007169832279182017,0.037126617180483545,0.04505308281017573,0.0006188368985031812,0.05720988301441507,0.021546344322170095,0.02783476178206455,0.15077368010037398,0.21066469147511618,TARA_Y100000748,(DCM) deep chlorophyll maximum layer (ENVO:01000326),Trades Biome,(SAO) South Atlantic Ocean [MRGID:1914],(SATL) South Atlantic Gyral Province [MRGID:21459],-31.03,4.69,40.3,16.8,35.7,231.7,,0.29,0.23
TARA_068_DCM_0.22-3,0.06042986892671397,0.037157392002597135,0.008404518581347024,0.00982578882260346,0.01919847274938908,0.02549943312164895,0.06031356275787754,0.0019423408701433756,0.018898587283445862,0.2849936165799752,0.016044942772601965,0.059088423194068866,0.006532664824956788,0.049202856078371465,0.07725780821904779,0.00833652131699573,0.04224889725345221,0.006447094158625005,0.017683110690865443,0.10067124781607618,0.08982285197919704,TARA_B100000482,(DCM) deep chlorophyll maximum layer (ENVO:01000326),Trades Biome,(SAO) South Atlantic Ocean [MRGID:1914],(SATL) South Atlantic Gyral Province [MRGID:21459],-31.03,4.69,40.3,16.8,35.7,231.7,,0.29,0.23
TARA_068_DCM_0.45-0.8,0.07266728870453744,0.03468914854767366,0.003501876648836175,0.01532425807580407,0.021159482358983045,0.008669933010662809,0.05089699914196674,0.00028754115712789597,0.023197912593039084,0.29278400216631023,0.0164872226536873,0.036452045869739706,0.007984731245012144,0.05697090116651872,0.04282112617482254,0.003125303271615506,0.04670114605714663,0.006522192998292972,0.015218494078170703,0.11611597380857876,0.12842242027147396,TARA_Y100000746,(DCM) deep chlorophyll maximum layer (ENVO:01000326),Trades Biome,(SAO) South Atlantic Ocean [MRGID:1914],(SATL) South Atlantic Gyral Province [MRGID:21459],-31.03,4.69,40.3,16.8,35.7,231.7,,0.29,0.23
TARA_068_DCM_<-0.22,0.004727440143839481,0.03183188116618638,0.002077836928267996,0.016902185329192507,0.07370589045328929,0.002892119083592349,0.1615514870281333,0.0,0.04055944548070489,0.02106471054787521,0.007254121757737196,0.02384249979686273,0.01670437716496726,0.0008203245218356004,0.011045381855065175,0.0,0.5141936738152901,0.0005438640762475207,0.015052201093525239,0.05339785267462313,0.001832707082764774,TARA_R100000995,(DCM) deep chlorophyll maximum layer (ENVO:01000326),Trades Biome,(SAO) South Atlantic Ocean [MRGID:1914],(SATL) South Atlantic Gyral Province [MRGID:21459],-31.03,4.69,40.3,16.8,35.7,231.7,,0.29,0.23
TARA_068_MES_0.22-3,0.07574276171491152,0.04824545261280619,0.0013783840655847924,0.005771010478883321,0.060561032682955394,0.0017598156883641897,0.033346138477563333,5.794709358520812e-06,0.006725673678753582,0.1368994291030187,0.03708989708660027,0.01597993823164017,0.011343972694582122,0.03624592945099871,0.04187885315278169,2.4501470428965213e-05,0.04460909089051019,0.008649135782116754,0.027824110412138253,0.17996545787527285,0.22595361974073053,TARA_B100000470,(MES) mesopelagic zone (ENVO:00000213),Trades Biome,(SAO) South Atlantic Ocean [MRGID:1914],(SATL) South Atlantic Gyral Province [MRGID:21459],-31.04,4.64,722.7,7.0,34.5,195.2,25.8,0.0,1.53
TARA_068_MES_0.45-0.8,0.07195824648649302,0.05584168303245453,0.002133522441087157,0.012934206623764091,0.05412592564437387,0.0029564917499911385,0.022171083173773108,5.255292599615264e-06,0.00895506918822268,0.20185604968541265,0.030700895075593666,0.023316205328056172,0.014164611585664146,0.03095666496804519,0.06138068569408992,0.00011264288581449047,0.0583885794993158,0.013071284252079525,0.026248129195377296,0.1616860868854092,0.14703668131238268,TARA_Y100000758,(MES) mesopelagic zone (ENVO:00000213),Trades Biome,(SAO) South Atlantic Ocean [MRGID:1914],(SATL) South Atlantic Gyral Province [MRGID:21459],-31.04,4.64,722.7,7.0,34.5,195.2,25.8,0.0,1.53
TARA_068_SRF_0.22-0.45,0.08830970963253025,0.04541299799618519,0.0021603484146632216,0.008919318730564195,0.04229646662379068,0.0032672665495362264,0.03931243188663274,2.965512755075026e-05,0.012163189628741597,0.1652793839298776,0.02699615811112386,0.024055810703773824,0.006214900597698753,0.039019813940245576,0.04685281584233099,0.0019375274727810986,0.041356255474944925,0.015367010944529871,0.026481969935828784,0.1556579050244116,0.208909063432258,TARA_Y100000741,(SRF) surface water layer (ENVO:00002042),Trades Biome,(SAO) South Atlantic Ocean [MRGID:1914],(SATL) South Atlantic Gyral Province [MRGID:21459],-31.03,4.69,5.4,16.8,35.7,231.9,,0.25,0.23
TARA_068_SRF_0.22-3,0.05984707680934876,0.04066253010392272,0.008618649856376446,0.00964327601608901,0.01998429815216824,0.024054983917796736,0.05967813098955545,0.002572807902532019,0.016748293875893158,0.29672643125289394,0.01808535466036987,0.0577676167106444,0.007598587062210117,0.05039522790299334,0.07642932497011491,0.008118909397207037,0.038554957621970844,0.005662157200196891,0.019086616302017627,0.09802310637560975,0.08174166292008873,TARA_B100000475,(SRF) surface water layer (ENVO:00002042),Trades Biome,(SAO) South Atlantic Ocean [MRGID:1914],(SATL) South Atlantic Gyral Province [MRGID:21459],-31.03,4.69,5.4,16.8,35.7,231.9,,0.25,0.23
TARA_068_SRF_0.45-0.8,0.06954527645559037,0.040072824493035474,0.004714712548595487,0.01248444273146108,0.01695947654467428,0.010179574056115007,0.056740494733404624,0.0001409320893988947,0.021778650099836733,0.3331972887810322,0.015153004566411046,0.038182908795058805,0.008189109322453989,0.06130632976450675,0.0422782155694429,0.003405386733929588,0.048606094726923295,0.005713705999129488,0.014503329645056313,0.09925788131231085,0.09759036103163293,TARA_Y100000739,(SRF) surface water layer (ENVO:00002042),Trades Biome,(SAO) South Atlantic Ocean [MRGID:1914],(SATL) South Atlantic Gyral Province [MRGID:21459],-31.03,4.69,5.4,16.8,35.7,231.9,,0.25,0.23
TARA_068_SRF_<-0.22,0.020647333883962667,0.03426236250695568,0.005774980012910052,0.08120516907763062,0.09495557396860697,0.010352794125130512,0.06870798911215135,0.0,0.02362762461847205,0.06960671219424731,0.02169213730894058,0.08084005681120075,0.01973563277037715,0.001697554220742148,0.03235790084315728,0.0,0.1845525593721263,0.00586825829531188,0.036491533877803684,0.20728925960718145,0.00033456739309153065,TARA_R100000988,(SRF) surface water layer (ENVO:00002042),Trades Biome,(SAO) South Atlantic Ocean [MRGID:1914],(SATL) South Atlantic Gyral Province [MRGID:21459],-31.03,4.69,5.4,16.8,35.7,231.9,,0.25,0.23
TARA_070_MES_0.22-0.45,0.06724483296989402,0.039279837317198,0.0012392835346156194,0.007314253511185484,0.06973815151845349,0.0009207360853410503,0.03469229124975774,4.784355342873054e-05,0.011923457716514816,0.0717564277368988,0.04532019792717573,0.03508815561314764,0.01318059838341941,0.02910057893711162,0.037242130627154056,8.290953003261531e-05,0.0519380278797124,0.0017025810407788925,0.046472780267851,0.1891485962304377,0.24656632836989112,TARA_Y100000782,(MES) mesopelagic zone (ENVO:00000213),Trades Biome,(SAO) South Atlantic Ocean [MRGID:1914],(SATL) South Atlantic Gyral Province [MRGID:21459],-20.37,-3.22,791.6,4.2,34.4,161.7,37.8,0.01,2.52
TARA_070_MES_0.22-3,0.050230752954182,0.053761653873785724,0.005341067522333639,0.014896389549608806,0.0656591495622615,0.0010022619316695331,0.023071123383030107,1.3942362499173929e-05,0.006649752510540263,0.12490815451489339,0.029822967477669833,0.05503638938822324,0.01845893052622305,0.022152371106614468,0.03450875890486256,3.724340503903284e-05,0.10457558991507476,0.004114645654160826,0.042664029985131025,0.1898728671597717,0.15322195831242535,TARA_B100000446,(MES) mesopelagic zone (ENVO:00000213),Trades Biome,(SAO) South Atlantic Ocean [MRGID:1914],(SATL) South Atlantic Gyral Province [MRGID:21459],-20.37,-3.22,791.6,4.2,34.4,161.7,37.8,0.01,2.52
TARA_070_MES_0.45-0.8,0.05014991065028593,0.05079157936396972,0.003710059206396988,0.021700294776970143,0.06515507947591377,0.0015625502863054579,0.023298646685882555,0.0001766111105483381,0.010599145318630127,0.13226303239822684,0.03739720367206764,0.06357241036129904,0.01997216034745025,0.01866033881541087,0.04909871724623958,0.00024590371392482763,0.09911629266745206,0.0058066559438766,0.04769123935796405,0.17809810746612523,0.12093406113505989,TARA_Y100000780,(MES) mesopelagic zone (ENVO:00000213),Trades Biome,(SAO) South Atlantic Ocean [MRGID:1914],(SATL) South Atlantic Gyral Province [MRGID:21459],-20.37,-3.22,791.6,4.2,34.4,161.7,37.8,0.01,2.52
TARA_070_MES_<-0.22,0.0454347566315633,0.04245770306614191,0.00407430164280923,0.05338924329050627,0.12325300932282114,0.003278257924028621,0.0017746871487868711,0.0,0.005286536365511283,0.05944231898555426,0.025466219776128972,0.1726055793178908,0.010440335594775838,0.0030794441561938094,0.016537592529746556,0.0,0.13836723881573496,0.0009412271080157476,0.06328102399423646,0.22859473640808378,0.002295787921470145,TARA_R100001039,(MES) mesopelagic zone (ENVO:00000213),Trades Biome,(SAO) South Atlantic Ocean [MRGID:1914],(SATL) South Atlantic Gyral Province [MRGID:21459],-20.37,-3.22,791.6,4.2,34.4,161.7,37.8,0.01,2.52
TARA_070_SRF_0.22-0.45,0.09583611580498393,0.06958138256067839,0.005924061109073872,0.026554478503738807,0.029894256901673005,0.0041671306625931034,0.024584998003845726,8.482624575584291e-05,0.009304324519475219,0.17916129231994293,0.009078228513776694,0.05314167772001803,0.010612630344321411,0.03961084620842931,0.03930749571933518,0.003028833501550611,0.0850913304079577,0.026574006602168583,0.020224753555234575,0.11977627016274638,0.14846106063270065,TARA_Y100000768,(SRF) surface water layer (ENVO:00002042),Trades Biome,(SAO) South Atlantic Ocean [MRGID:1914],(SATL) South Atlantic Gyral Province [MRGID:21459],-20.44,-3.19,5.4,19.8,36.4,215.7,0.2,0.05,0.36
TARA_070_SRF_0.22-3,0.053774964166097894,0.03618182140987431,0.009033273039841309,0.02932766450086119,0.011033185146260146,0.04014164400668649,0.025559411865071366,0.006700596749253855,0.006031402475692567,0.2564049778719064,0.00448050866272997,0.08036943967472221,0.006123328301334581,0.047485741971381584,0.0833699545779175,0.0067347020269411485,0.0597154731908674,0.00623290751356979,0.019295662076053672,0.11335734816805144,0.09864599260488505,TARA_B100000459,(SRF) surface water layer (ENVO:00002042),Trades Biome,(SAO) South Atlantic Ocean [MRGID:1914],(SATL) South Atlantic Gyral Province [MRGID:21459],-20.44,-3.19,5.4,19.8,36.4,215.7,0.2,0.05,0.36
TARA_070_SRF_0.45-0.8,0.06263259991113489,0.05669979742730915,0.0027686068560853778,0.03876455982148316,0.023646439128013876,0.0028873986511804,0.03745360617574671,0.0002714204021511506,0.012333361102011772,0.27909574282561483,0.01193900286881451,0.054410733614436775,0.0123525916974499,0.05006825551849402,0.02556762930519768,0.00117366619248917,0.08104877008977428,0.007978725762508795,0.019931842296950497,0.11910682686902613,0.09986842348412694,TARA_Y100000766,(SRF) surface water layer (ENVO:00002042),Trades Biome,(SAO) South Atlantic Ocean [MRGID:1914],(SATL) South Atlantic Gyral Province [MRGID:21459],-20.44,-3.19,5.4,19.8,36.4,215.7,0.2,0.05,0.36
TARA_070_SRF_<-0.22,0.03316271389891593,0.036739103608432466,0.004970782031054416,0.041652505991078816,0.0745237828610729,0.0055496830741909335,0.06799054347701547,0.0,0.01393969272875707,0.08249815905920191,0.02006827143756057,0.03472404843560361,0.009994310800454232,0.003383610760611569,0.024505759694199703,1.4774378282124511e-05,0.3198470882834881,0.0017133558876491206,0.05651350156223803,0.16713308999783386,0.0010752220323591098,TARA_R100001015,(SRF) surface water layer (ENVO:00002042),Trades Biome,(SAO) South Atlantic Ocean [MRGID:1914],(SATL) South Atlantic Gyral Province [MRGID:21459],-20.44,-3.19,5.4,19.8,36.4,215.7,0.2,0.05,0.36
TARA_072_DCM_0.22-3,0.0694307981242259,0.0615915068852026,0.002148954035633499,0.018872407728881373,0.028196926209224243,0.003521459694606737,0.1473460474547466,0.00021577142129134308,0.004528242674791109,0.2650657593609461,0.012535430735437942,0.033457078840958464,0.012629980537031982,0.02657342766391595,0.04876586965855877,0.001608700151316106,0.06885324495541777,0.026651172918917967,0.01146824767799547,0.09214454248118242,0.06439443078971771,TARA_B100000427,(DCM) deep chlorophyll maximum layer (ENVO:01000326),Trades Biome,(SAO) South Atlantic Ocean [MRGID:1914],(SATL) South Atlantic Gyral Province [MRGID:21459],-8.7,-17.94,95.4,24.1,36.6,194.4,0.2,0.01,0.14
TARA_072_DCM_<-0.22,0.0014504041778341597,0.04625516608324028,0.0008978767881759908,0.003219325424134163,0.044398259658065306,0.0005005011069058827,0.36841806554220535,0.0,0.07105887721482762,0.01801129035095306,0.0008605782561440223,0.0037124389760034926,0.02784878385481336,0.0005240615894496259,0.0022875078749540517,0.0,0.3886024612491749,6.883067888695782e-05,0.012622807499393532,0.009211680648778845,5.1083026059493524e-05,TARA_R100001082,(DCM) deep chlorophyll maximum layer (ENVO:01000326),Trades Biome,(SAO) South Atlantic Ocean [MRGID:1914],(SATL) South Atlantic Gyral Province [MRGID:21459],-8.7,-17.94,95.4,24.1,36.6,194.4,0.2,0.01,0.14
TARA_072_MES_0.22-3,0.052109267002441347,0.045113620514495884,0.002045681851796564,0.012718525980260279,0.050727816787149556,0.0017826858557253439,0.06079537496299481,7.713302450648539e-05,0.022016801527144008,0.19591116828535887,0.026434046309779496,0.03157160579204716,0.009326398673854923,0.03726266026528528,0.04221809440321791,0.0005389934437880512,0.07885387456651613,0.0049826076954076,0.025464964661386095,0.15043702623626615,0.14961165216057795,TARA_B100000508,(MES) mesopelagic zone (ENVO:00000213),Trades Biome,(SAO) South Atlantic Ocean [MRGID:1914],(SATL) South Atlantic Gyral Province [MRGID:21459],-8.8,-17.91,792.7,4.7,34.5,143.2,38.4,0.01,2.62
TARA_072_MES_<-0.22,0.011200952166690155,0.04216148961315347,0.004344561314749302,0.08791205294089248,0.07622546730090077,0.01285838014656176,0.010829912220756882,0.0,0.024388298302848353,0.054524816998558594,0.03876255919423323,0.09094195424250792,0.01241113085151815,0.0006124941492126332,0.03741364357700679,0.0,0.2822739938223632,0.004040649589350032,0.040903698997397375,0.16789835654251078,0.00029558802878793547,TARA_R100001086,(MES) mesopelagic zone (ENVO:00000213),Trades Biome,(SAO) South Atlantic Ocean [MRGID:1914],(SATL) South Atlantic Gyral Province [MRGID:21459],-8.8,-17.91,792.7,4.7,34.5,143.2,38.4,0.01,2.62
TARA_072_SRF_0.22-3,0.043189208084039345,0.03378586428815024,0.0035989408133602708,0.019580984918687042,0.01932141276402281,0.0038795259923529294,0.135293636857832,0.00046380397804396905,0.02546732547075421,0.34552455297772977,0.00969797111695511,0.022130621849338096,0.0066079805507481505,0.055011982087772415,0.0416021789789974,0.0023262441324777687,0.0968866714517778,0.005189752886189342,0.01334138822435956,0.08286217571761299,0.03423777685879876,TARA_B100000424,(SRF) surface water layer (ENVO:00002042),Trades Biome,(SAO) South Atlantic Ocean [MRGID:1914],(SATL) South Atlantic Gyral Province [MRGID:21459],-8.78,-17.91,5.8,25.0,36.4,199.1,0.3,0.0,0.1
TARA_072_SRF_<-0.22,0.022409619743097586,0.026670879170096532,0.007650614596136411,0.05232170484156694,0.07187320098395264,0.007010174023989675,0.14255618084815275,0.0,0.03482314059596597,0.05186162682649279,0.014849771529461826,0.04228543000095595,0.014365275275355908,0.001598043992477411,0.01714185978141309,0.0,0.2865368524162162,0.0008340236048948894,0.04313373755665698,0.16186518937818348,0.00021267483493292707,TARA_R100001079,(SRF) surface water layer (ENVO:00002042),Trades Biome,(SAO) South Atlantic Ocean [MRGID:1914],(SATL) South Atlantic Gyral Province [MRGID:21459],-8.78,-17.91,5.8,25.0,36.4,199.1,0.3,0.0,0.1
TARA_076_DCM_0.22-0.45,0.08252257015558158,0.0537180608765409,0.002819309794658532,0.012445275797862308,0.04455991721251032,0.0033268699137045036,0.04697159694053377,2.685819237581596e-05,0.005886196365759537,0.138285160599481,0.036122777070174895,0.014557011701019388,0.00932595122034687,0.03532491019435628,0.06522219122989145,0.0007093825450691383,0.04254180798089144,0.021426205066809628,0.025016973156901812,0.14638120716212766,0.21280976682340316,TARA_Y100000817,(DCM) deep chlorophyll maximum layer (ENVO:01000326),Trades Biome,(SAO) South Atlantic Ocean [MRGID:1914],(SATL) South Atlantic Gyral Province [MRGID:21459],-21.05,-35.37,148.0,21.6,36.7,203.8,0.6,0.02,0.04
TARA_076_DCM_0.22-3,0.04350817886442895,0.06745749002501704,0.006746940259185607,0.029780394769707962,0.0383557542925664,0.01593243307735282,0.0478985341799437,0.001261028078339386,0.012907114668960903,0.17913723443469315,0.037263026871771035,0.057721538747429094,0.009849829162175966,0.030403851506171847,0.06779094360315736,0.00433458299514869,0.11070164218094476,0.012998008735528298,0.02542478506374097,0.13086560974360317,0.06966107874013293,TARA_B100000519,(DCM) deep chlorophyll maximum layer (ENVO:01000326),Trades Biome,(SAO) South Atlantic Ocean [MRGID:1914],(SATL) South Atlantic Gyral Province [MRGID:21459],-21.05,-35.37,148.0,21.6,36.7,203.8,0.6,0.02,0.04
TARA_076_DCM_0.45-0.8,0.058363011974669345,0.052798219202175804,0.003949865899611632,0.029070627369724607,0.03897271571715281,0.005610227336719414,0.04614203607929543,0.00010834960874903171,0.013546799326988405,0.2501082252507885,0.019768561478616914,0.041589011387302595,0.01007532521692586,0.04124130508208937,0.06854539964089061,0.0012101161119030914,0.06837223184709038,0.011596577529290874,0.023320855456421048,0.1240560118352633,0.091554526648331,TARA_Y100000814,(DCM) deep chlorophyll maximum layer (ENVO:01000326),Trades Biome,(SAO) South Atlantic Ocean [MRGID:1914],(SATL) South Atlantic Gyral Province [MRGID:21459],-21.05,-35.37,148.0,21.6,36.7,203.8,0.6,0.02,0.04
TARA_076_DCM_<-0.22,0.014799226626318482,0.038350980421949864,0.012815873595065122,0.07921809632719524,0.08592119717157888,0.010398233281909806,0.02653990356805351,0.0,0.021646344826420465,0.06435730835918894,0.03223152278153794,0.0867665665052009,0.02466743657922231,0.001197389334394643,0.06354848908953864,4.712881904983063e-06,0.19212118205952067,0.0028545846056728472,0.04865407549230028,0.19377459257993507,0.00013228391309131685,TARA_R100001129,(DCM) deep chlorophyll maximum layer (ENVO:01000326),Trades Biome,(SAO) South Atlantic Ocean [MRGID:1914],(SATL) South Atlantic Gyral Province [MRGID:21459],-21.05,-35.37,148.0,21.6,36.7,203.8,0.6,0.02,0.04
TARA_076_MES_0.22-3,0.062039679840112556,0.04621277146399496,0.003508696319624065,0.01254677163890359,0.07109123162290978,0.001281150907696466,0.030548487562209962,1.293555719756436e-06,0.007810589510242056,0.11206699687339072,0.04517563193904149,0.01888744361665237,0.0112606698579632,0.031293379239914244,0.03935593364076929,1.0435545799918605e-05,0.06542900155700677,0.006022334828280116,0.030973252677503258,0.18661266443267852,0.21787158336958684,TARA_B100000749,(MES) mesopelagic zone (ENVO:00000213),Trades Biome,(SAO) South Atlantic Ocean [MRGID:1914],(SATL) South Atlantic Gyral Province [MRGID:21459],-20.95,-35.22,792.8,4.7,34.4,192.2,34.6,0.0,0.94
TARA_076_MES_0.45-0.8,0.04260546589812157,0.050868319348409304,0.006336900417208014,0.03224907387715791,0.07518389304778507,0.0016352751759777752,0.020024904730064897,1.1920933892934466e-06,0.015427459873278537,0.11935823728865151,0.05805525526075396,0.05992705569329918,0.01761548349248816,0.017167139771969004,0.05458254469338511,2.43017758733144e-06,0.08496807807605164,0.00873868324842405,0.04040228844704216,0.19278042109945004,0.1020698982895053,TARA_Y100000815,(MES) mesopelagic zone (ENVO:00000213),Trades Biome,(SAO) South Atlantic Ocean [MRGID:1914],(SATL) South Atlantic Gyral Province [MRGID:21459],-20.95,-35.22,792.8,4.7,34.4,192.2,34.6,0.0,0.94
TARA_076_SRF_0.22-0.45,0.057674377217043236,0.043062579448829,0.005700186587882703,0.013251508640795738,0.023187862864269704,0.004601279269525778,0.07230508361335106,8.174618842268341e-05,0.025289541808251277,0.368809604677774,0.020320435619893513,0.027978079104454906,0.007643433928218534,0.04998146950336414,0.032000682904216635,0.0012040646301595512,0.08493183355596318,0.014366916329208425,0.014506832178036708,0.08873083477729309,0.04437164715304593,TARA_Y100000816,(SRF) surface water layer (ENVO:00002042),Trades Biome,(SAO) South Atlantic Ocean [MRGID:1914],(SATL) South Atlantic Gyral Province [MRGID:21459],-20.94,-35.2,5.5,23.3,37.1,206.2,0.0,0.0,0.06
TARA_076_SRF_0.22-3,0.03906675497018326,0.024577601893355623,0.008589844910592828,0.018785291916657443,0.01769503160678112,0.01512215740938798,0.07920710310918364,0.0022585953326755377,0.024116566720995707,0.3595946747161712,0.018127144723001854,0.04301235042349947,0.010014757226245922,0.052313390787562274,0.0729052529400244,0.01006507724655966,0.060170303863102584,0.004068776346159078,0.017971888935001616,0.09201189494226533,0.030325539980593584,TARA_B100000513,(SRF) surface water layer (ENVO:00002042),Trades Biome,(SAO) South Atlantic Ocean [MRGID:1914],(SATL) South Atlantic Gyral Province [MRGID:21459],-20.94,-35.2,5.5,23.3,37.1,206.2,0.0,0.0,0.06
TARA_076_SRF_0.45-0.8,0.041961521648431394,0.02041570593674765,0.004662689620513561,0.019667251592952968,0.023037024633278544,0.00211725623553983,0.08643753224482424,0.00020287873997499396,0.02742135595405009,0.4228674005691596,0.01658496205295772,0.03151866919301787,0.008602850620191688,0.0659120608787093,0.0422974347537337,0.001226382202873244,0.049299446370338736,0.003255958265169538,0.012119955456095352,0.09954927201107804,0.020842391020361874,TARA_Y100000813,(SRF) surface water layer (ENVO:00002042),Trades Biome,(SAO) South Atlantic Ocean [MRGID:1914],(SATL) South Atlantic Gyral Province [MRGID:21459],-20.94,-35.2,5.5,23.3,37.1,206.2,0.0,0.0,0.06
TARA_076_SRF_<-0.22,0.007262507140349981,0.053932266356420865,0.012114668846480563,0.06398361812200598,0.07689545236225308,0.006709180429097632,0.027282542753416794,0.0,0.030330209640937682,0.06164173592966183,0.08468290710342564,0.09127871115722637,0.023558535051072606,0.0008854520311761295,0.06692138169904349,0.0,0.13209171964798858,0.008592625485059827,0.028939237432961524,0.22263402256509154,0.0002632262463299313,TARA_R100001126,(SRF) surface water layer (ENVO:00002042),Trades Biome,(SAO) South Atlantic Ocean [MRGID:1914],(SATL) South Atlantic Gyral Province [MRGID:21459],-20.94,-35.2,5.5,23.3,37.1,206.2,0.0,0.0,0.06
TARA_078_DCM_0.22-0.45,0.08243277141158889,0.05541982584798866,0.003246633764923706,0.009675371468447786,0.044627178055097624,0.0026601299193526958,0.04406336482655422,1.1663057266560585e-05,0.00635492696995938,0.1312300638089473,0.03455967689122155,0.014544903458688377,0.005743709204330565,0.03666889706565965,0.05548788241312384,0.0025203133584260286,0.039387997237580116,0.020696516003397752,0.021632035952238365,0.1546896573726498,0.23434648191255722,TARA_Y100000996,(DCM) deep chlorophyll maximum layer (ENVO:01000326),Trades Biome,(SAO) South Atlantic Ocean [MRGID:1914],(SATL) South Atlantic Gyral Province [MRGID:21459],-30.15,-43.25,118.3,19.3,36.3,217.1,0.5,0.05,0.0
TARA_078_DCM_0.22-3,0.06286731894723169,0.052079446055604633,0.004390131082699854,0.018182124605877353,0.035238665694272676,0.011828400345337433,0.04776550674874069,0.000637438124008404,0.011432226713126072,0.2154020922818675,0.024433022256096844,0.03512566281439772,0.0075865765275925845,0.04301732325139279,0.06332942054831482,0.0035276196560558803,0.05458115507258747,0.011924079906199885,0.01899421424149208,0.12892591575774426,0.14873165936935942,TARA_B100000530,(DCM) deep chlorophyll maximum layer (ENVO:01000326),Trades Biome,(SAO) South Atlantic Ocean [MRGID:1914],(SATL) South Atlantic Gyral Province [MRGID:21459],-30.15,-43.25,118.3,19.3,36.3,217.1,0.5,0.05,0.0
TARA_078_DCM_0.45-0.8,0.06282857299339718,0.04044263808754679,0.004218591336700926,0.019210838862739735,0.026486090865822928,0.007273650133453455,0.05794966912954235,0.00015688581999877534,0.021663907530277627,0.31749646824894184,0.012932379268917986,0.03435938407134564,0.007626482681146655,0.05209449219739168,0.05422922275330889,0.0030180706759189778,0.04971366431272571,0.00954549254920077,0.01410198570238942,0.10503357406363163,0.09961793871560096,TARA_Y100000994,(DCM) deep chlorophyll maximum layer (ENVO:01000326),Trades Biome,(SAO) South Atlantic Ocean [MRGID:1914],(SATL) South Atlantic Gyral Province [MRGID:21459],-30.15,-43.25,118.3,19.3,36.3,217.1,0.5,0.05,0.0
TARA_078_MES_0.22-3,0.07114428207127298,0.04423412056405393,0.001322923069898259,0.010064566719676062,0.06539004617629589,0.001288207757338598,0.03637748094653269,2.1373504039075767e-05,0.009126016183664556,0.1156477833825003,0.04126948979580942,0.012466567968685657,0.008896432819098212,0.03639438305029748,0.03952246475120855,9.148800632662307e-05,0.04565203220475467,0.006294416378508939,0.027168009987779854,0.18452840795209718,0.24309950671016106,TARA_B100000745,(MES) mesopelagic zone (ENVO:00000213),Trades Biome,(SAO) South Atlantic Ocean [MRGID:1914],(SATL) South Atlantic Gyral Province [MRGID:21459],-30.15,-43.29,792.7,5.9,34.4,214.8,29.8,0.0,1.95
TARA_078_MES_0.45-0.8,0.035276658939228524,0.05501293416193855,0.005984107572113738,0.030090408872074877,0.0682391472849186,0.0016154525278590634,0.023116718386559737,2.1405193061540025e-06,0.01346367043013256,0.1714340651980418,0.019620562780564666,0.10245512300068442,0.02244156090042959,0.012284098487001642,0.05551076009420014,2.1334397855163913e-05,0.11766429988395533,0.006173930651198523,0.045587206404049875,0.16373517877664667,0.050270640731240365,TARA_Y100001001,(MES) mesopelagic zone (ENVO:00000213),Trades Biome,(SAO) South Atlantic Ocean [MRGID:1914],(SATL) South Atlantic Gyral Province [MRGID:21459],-30.15,-43.29,792.7,5.9,34.4,214.8,29.8,0.0,1.95
TARA_078_SRF_0.22-0.45,0.08178523515554997,0.06479451551255307,0.004159062619459697,0.01635109736388543,0.0185466867890146,0.004077156346204934,0.09032438334936474,1.2031503087678213e-05,0.029149901631402197,0.3342344983635604,0.010237690091008032,0.019568132477075235,0.008771972741418098,0.041841454810321844,0.026726207275244405,0.0025836112419493507,0.08485937686059582,0.036245448264116784,0.00572245438599886,0.06510115484664517,0.05490792837154367,TARA_Y100000992,(SRF) surface water layer (ENVO:00002042),Trades Biome,(SAO) South Atlantic Ocean [MRGID:1914],(SATL) South Atlantic Gyral Province [MRGID:21459],-30.14,-43.29,5.6,19.9,36.3,221.5,-0.4,0.0,0.0
TARA_078_SRF_0.22-3,0.05545868631618487,0.027612562505301405,0.005499808795424769,0.0203045133348194,0.01164663683531575,0.010532439702366603,0.09064507107083122,0.0015171877540389926,0.03644284914128449,0.4114568005815402,0.010650850014646085,0.028038765008018437,0.008568068559796714,0.0596631836787948,0.05238231693594942,0.006775702618628772,0.05172886481628658,0.00890170342731933,0.01139348144727148,0.06794723705235092,0.02283327040382961,TARA_B100000524,(SRF) surface water layer (ENVO:00002042),Trades Biome,(SAO) South Atlantic Ocean [MRGID:1914],(SATL) South Atlantic Gyral Province [MRGID:21459],-30.14,-43.29,5.6,19.9,36.3,221.5,-0.4,0.0,0.0
TARA_078_SRF_0.45-0.8,0.05422366859825333,0.021222960995242023,0.0029988952611458954,0.021748298769406246,0.014738819645694429,0.002171180563129026,0.0841326536226159,0.00012046948490399978,0.04124758603627152,0.4653350289396786,0.007154755691420262,0.024482036232963182,0.007476237626858298,0.07274611223753681,0.03541350392217263,0.0014489034421609408,0.039234675941798886,0.002221214582052099,0.00807344938367964,0.07427973031663078,0.019529818706385538,TARA_Y100000991,(SRF) surface water layer (ENVO:00002042),Trades Biome,(SAO) South Atlantic Ocean [MRGID:1914],(SATL) South Atlantic Gyral Province [MRGID:21459],-30.14,-43.29,5.6,19.9,36.3,221.5,-0.4,0.0,0.0
TARA_078_SRF_<-0.22,0.02017060392938557,0.029434874304158094,0.007333923554922587,0.05926545502169271,0.08311270721716056,0.004956062646717189,0.03665233660673256,0.0,0.03203367300792673,0.07231078892112432,0.027785923432771968,0.08483259717317365,0.039051870954946166,0.001430797024337733,0.036552257309521025,2.933203120905115e-05,0.2560574944778313,0.0017955257537521343,0.04631065174865028,0.16019540463151166,0.0006877202524746197,TARA_R100001224,(SRF) surface water layer (ENVO:00002042),Trades Biome,(SAO) South Atlantic Ocean [MRGID:1914],(SATL) South Atlantic Gyral Province [MRGID:21459],-30.14,-43.29,5.6,19.9,36.3,221.5,-0.4,0.0,0.0
TARA_082_DCM_0.22-3,0.10571265690282722,0.04710179280054441,0.009291824438399,0.06568568241756964,0.037107308376934524,0.02066846579298206,0.0356842878856764,0.002283636837786692,0.019220960721185346,0.06758892916379848,0.005629514315686277,0.09355207954508779,0.02521286065520549,0.030197026605853706,0.06289321468229278,0.008134078583580511,0.07839321604776063,0.007102575440823604,0.02244301717014331,0.16965436630810704,0.0864425053077553,TARA_B100000767,(DCM) deep chlorophyll maximum layer (ENVO:01000326),Coastal Biome ,(SAO) South Atlantic Ocean [MRGID:1914],(FKLD) Southwest Atlantic Shelves Province [MRGID:21469],-47.21,-58.06,41.8,7.0,34.1,306.2,17.1,0.14,1.42
TARA_082_DCM_<-0.22,0.020811403873094204,0.023424566069997408,0.010940978206172921,0.03859498875981551,0.12464006396619344,0.0018647664583881422,0.001943011480697353,0.0,0.010828441145443566,0.03613662474832092,0.02521817971662636,0.0403014845307704,0.01535255427657266,0.0028443571630885813,0.02779429105233791,5.026866234671933e-05,0.4837783401367388,0.0033533569676837656,0.03809555278611498,0.09256328270898975,0.001463487290606652,TARA_R100000544,(DCM) deep chlorophyll maximum layer (ENVO:01000326),Coastal Biome ,(SAO) South Atlantic Ocean [MRGID:1914],(FKLD) Southwest Atlantic Shelves Province [MRGID:21469],-47.21,-58.06,41.8,7.0,34.1,306.2,17.1,0.14,1.42
TARA_082_SRF_0.22-3,0.0962530422368982,0.05561308250069388,0.01394550646659555,0.05568520325672048,0.04276736945094138,0.027329515251159866,0.0391484098627274,0.004976044552560546,0.020580746350431202,0.06037989380180886,0.006038867647196524,0.10075167436048313,0.02960457200298689,0.01680185921462536,0.08370950012554211,0.010590901790203392,0.0912469514269298,0.005965814398328044,0.031578022192024914,0.15983346278620358,0.04719956032493882,TARA_B100000768,(SRF) surface water layer (ENVO:00002042),Coastal Biome ,(SAO) South Atlantic Ocean [MRGID:1914],(FKLD) Southwest Atlantic Shelves Province [MRGID:21469],-47.18,-58.3,5.5,7.3,34.0,305.0,17.1,0.15,1.3
TARA_084_SRF_0.22-3,0.07935720332833635,0.0513037717629393,0.02159945757418471,0.02190946799635142,0.042279809750190474,0.030356270787323763,0.07480320556390985,0.008433664970861197,0.02139518715319546,0.07453802633011566,0.05115179868897042,0.1335743381828373,0.025986697874877052,0.006803979532243734,0.10445955719079315,0.010934362707313789,0.05532452442444438,0.001234060005618457,0.04860393338229945,0.12749679401453104,0.008453888778662856,TARA_B100000780,(SRF) surface water layer (ENVO:00002042),Polar Biome,(SO) Southern Ocean [MRGID:1907],(ANTA) Antarctic Province [MRGID:21502],-60.23,-60.65,5.9,1.8,33.7,338.3,24.4,0.27,1.72
TARA_085_DCM_0.22-3,0.15513443147567837,0.040769004518758215,0.03240312958482209,0.004962759904924019,0.05284741103487977,0.04983454995587004,0.05788394163546645,0.020632500138982653,0.006052759371348965,0.04744694609587999,0.012984683089492027,0.10793520915798853,0.019182631799249165,0.010248362067316783,0.14941529713731894,0.022490651669559703,0.027983612035079476,0.0007668201510034889,0.04624054096244402,0.11619480960849543,0.01858994860544193,TARA_B100000795,(DCM) deep chlorophyll maximum layer (ENVO:01000326),Polar Biome,(SO) Southern Ocean [MRGID:1907],(ANTA) Antarctic Province [MRGID:21502],-62.24,-49.18,87.4,-0.8,34.3,325.4,33.1,0.06,2.31
TARA_085_DCM_<-0.22,0.024965716551481724,0.03402973260882276,0.0057513959981323574,0.04164894227758788,0.10326909398642123,0.001412508519490066,0.0011706696823687852,0.0,0.009931913973263541,0.059892130303647484,0.04717571292061897,0.03810017271369263,0.018930177451708878,0.0036385834108636863,0.021095421572070044,5.017635434511782e-05,0.34428936643779334,0.007869603848827832,0.06410459852083356,0.17152497077898687,0.0011491120890430896,TARA_R100001377,(DCM) deep chlorophyll maximum layer (ENVO:01000326),Polar Biome,(SO) Southern Ocean [MRGID:1907],(ANTA) Antarctic Province [MRGID:21502],-62.24,-49.18,87.4,-0.8,34.3,325.4,33.1,0.06,2.31
TARA_085_MES_0.22-3,0.05740812117024841,0.06159246980513295,0.0016819534904570475,0.006707181652776662,0.05834527206173126,0.00242583342085654,0.02400312634164548,0.0001960982120648037,0.012073934832902576,0.16673790078074402,0.02683591565886283,0.01474151120326522,0.015079827308612643,0.03439427153912665,0.048315457864834994,0.00015185038514163064,0.10971575426191624,0.007391077690394029,0.03378455963856673,0.1584064415279846,0.16001144115273472,TARA_B100000809,(MES) mesopelagic zone (ENVO:00000213),Polar Biome,(SO) Southern Ocean [MRGID:1907],(ANTA) Antarctic Province [MRGID:21502],-61.98,-49.45,783.8,0.5,34.7,203.8,38.8,0.02,2.61
TARA_085_SRF_0.22-3,0.2188327040095119,0.014840416291932172,0.017741559981767702,0.0047315560504366215,0.03535713058034615,0.020337148179198385,0.07726359991429797,0.005328738137003429,0.005857266195952962,0.08153962926126171,0.01485102059917787,0.04283038990792237,0.030390623494945913,0.004423844930870985,0.2170307161515598,0.005916519807623622,0.019942409753797727,0.00023697646944827798,0.05589813943024249,0.12074450772919317,0.005905103123508762,TARA_B100000787,(SRF) surface water layer (ENVO:00002042),Polar Biome,(SO) Southern Ocean [MRGID:1907],(ANTA) Antarctic Province [MRGID:21502],-62.03,-49.54,5.9,0.7,34.4,343.4,27.5,0.11,2.11
TARA_093_DCM_0.22-3,0.0517175151271508,0.12286843438349453,0.002317360691302131,0.036839724300916574,0.03839699935095209,0.002270704875874859,0.022142376688103038,1.0423583468977977e-05,0.023959480965495453,0.12559325788792322,0.055783624216978286,0.07539292052969551,0.06554001771263569,0.0068871822653303995,0.01686707248134376,0.0006583125459429682,0.15746860791477,0.0012191849986754955,0.07303447918258289,0.12028750658700081,0.0007448137103624512,TARA_B100001059,(DCM) deep chlorophyll maximum layer (ENVO:01000326),Coastal Biome ,(SPO) South Pacific Ocean [MRGID:1910],(CHIL) Chile-Peru Current Coastal Province [MRGID:21495],-33.88,-73.05,33.8,16.4,34.3,237.2,0.7,0.37,1.07
TARA_093_SRF_0.22-3,0.05917773753129881,0.10732682343871451,0.0018143103821547828,0.03155895507334941,0.03931112721883197,0.0013663735950535136,0.04447577129168717,2.610527069658757e-05,0.027466271282730974,0.16137952991736793,0.04453325917377632,0.06828371612245086,0.030921747849392493,0.024651803091709962,0.019691685011729323,0.0014288176025546169,0.13667889649598147,0.0006037068221327876,0.06992792902763963,0.12719634294327944,0.002179090857467332,TARA_B100001063,(SRF) surface water layer (ENVO:00002042),Coastal Biome ,(SPO) South Pacific Ocean [MRGID:1910],(CHIL) Chile-Peru Current Coastal Province [MRGID:21495],-34.05,-73.08,5.3,18.0,34.3,244.9,-1.5,0.01,0.52
TARA_094_SRF_0.22-3,0.06594909769386707,0.06328599804091324,0.008213517989012563,0.03441475382842953,0.032159771472339345,0.002841562463475267,0.0620717793244086,0.00044174008154825153,0.05465860841771998,0.3017036412161219,0.015368772025424913,0.05134182052826387,0.0222973516665259,0.03381598206774806,0.02083030169361622,0.0014791173482072777,0.0798611346570768,0.011051006738817187,0.021264034494231313,0.10385251859209317,0.01309748966015963,TARA_B100001057,(SRF) surface water layer (ENVO:00002042),Trades Biome,(SPO) South Pacific Ocean [MRGID:1910],"(SPSG) South Pacific Subtropical Gyre Province, North and South [MRGID:21486]",-32.78,-87.09,5.4,21.1,34.7,219.2,-0.4,0.0,0.28
TARA_096_SRF_0.22-3,0.05707800047208699,0.04539857276783587,0.006447072072357501,0.044189048572273765,0.023719936707325844,0.002533081107144327,0.0718168022330298,0.0002331352670838442,0.02823812936969377,0.35226991076536013,0.007522075940874963,0.042910382037487274,0.027670057648435636,0.04428014048421588,0.03201362880966971,0.003124528825102184,0.07116842981534113,0.01250633685908421,0.009627403819433472,0.09376944289743436,0.02348388352872932,TARA_B100000989,(SRF) surface water layer (ENVO:00002042),Trades Biome,(SPO) South Pacific Ocean [MRGID:1910],"(SPSG) South Pacific Subtropical Gyre Province, North and South [MRGID:21486]",-29.72,-101.16,5.5,23.8,35.8,204.1,-0.4,0.0,0.16
TARA_098_DCM_0.22-3,0.06695956638911935,0.04656661550121582,0.002433114128583665,0.012836093593449489,0.015468988524872634,0.004306491298244247,0.08344754019904232,0.00024156265257573161,0.015096514410914743,0.4314295441075249,0.005472491821155235,0.01873732001047378,0.006637875931175627,0.04488587924250765,0.041540844723205905,0.001265187304243276,0.04719152911568209,0.0195696098701007,0.004655697050858889,0.08113757116092829,0.05011996296412565,TARA_B100001029,(DCM) deep chlorophyll maximum layer (ENVO:01000326),Trades Biome,(SPO) South Pacific Ocean [MRGID:1910],"(SPSG) South Pacific Subtropical Gyre Province, North and South [MRGID:21486]",-25.85,-111.77,183.3,20.2,35.8,210.6,-0.7,0.02,0.1
TARA_098_MES_0.22-3,0.07045667436199826,0.04392348280755679,0.0006832856369659773,0.005386266570351078,0.0669549334816364,0.0011916886073115786,0.034670076089211695,2.5584280392158767e-07,0.005345633931305082,0.12635833922574957,0.0428428671164415,0.011826967166894941,0.00800641524734793,0.036506915064084156,0.03710894381462667,8.03353688234839e-06,0.04716909498352838,0.006115904562180447,0.02485898851504468,0.17923489553811137,0.25135033789996725,TARA_B100001013,(MES) mesopelagic zone (ENVO:00000213),Trades Biome,(SPO) South Pacific Ocean [MRGID:1910],"(SPSG) South Pacific Subtropical Gyre Province, North and South [MRGID:21486]",-25.82,-111.74,481.1,8.1,34.4,155.6,24.6,0.0,2.02
TARA_098_SRF_0.22-3,0.05316656344574064,0.03421412956695786,0.004872088630549152,0.028604668568813472,0.01408040800830785,0.0031405566363754797,0.0782093249885519,0.0004642125612836869,0.015987810065562755,0.40167183337656887,0.003992844449406011,0.03209454990884245,0.019043037339217563,0.05140296550440149,0.043849279269925726,0.0025847063918757298,0.05798968071557846,0.013162431565202724,0.007451997787165039,0.09531342636422516,0.03870348485544805,TARA_B100001027,(SRF) surface water layer (ENVO:00002042),Trades Biome,(SPO) South Pacific Ocean [MRGID:1910],"(SPSG) South Pacific Subtropical Gyre Province, North and South [MRGID:21486]",-25.83,-111.78,5.6,25.1,36.4,200.5,-1.6,0.0,0.2
TARA_099_SRF_0.22-3,0.05848324240712833,0.03480770061158004,0.004679471392634708,0.020035805675976428,0.010185026932009436,0.002154425700993854,0.08166200310503116,0.00024156890958016347,0.031836557817182136,0.42978321291730653,0.004281721531896109,0.029186762470730553,0.011664140197011934,0.06047586726995701,0.04133103423390084,0.001746143427564798,0.049558804109711446,0.00989231694628496,0.004582067231854876,0.08399595716299522,0.029416169948669583,TARA_B100000886,(SRF) surface water layer (ENVO:00002042),Trades Biome,(SPO) South Pacific Ocean [MRGID:1910],"(SPSG) South Pacific Subtropical Gyre Province, North and South [MRGID:21486]",-21.15,-104.79,5.4,23.8,36.1,204.0,-1.7,0.0,0.29
TARA_100_DCM_0.22-3,0.06300306417506178,0.047259300899059595,0.002805767439263198,0.024716675348192066,0.02626404717989267,0.00403568049871354,0.07262289475274196,0.00030301654904559987,0.0073521054983519,0.33675741722480157,0.013889043051967307,0.04713537943393335,0.008949049958923172,0.03464997237931232,0.024466667844847433,0.0014287165517138725,0.08837274161988017,0.014325157964730984,0.01899398297663291,0.11028166555755965,0.05238765309537519,TARA_B100000965,(DCM) deep chlorophyll maximum layer (ENVO:01000326),Trades Biome,(SPO) South Pacific Ocean [MRGID:1910],"(SPSG) South Pacific Subtropical Gyre Province, North and South [MRGID:21486]",-12.99,-95.99,57.6,20.6,35.5,216.8,1.5,0.16,0.78
TARA_100_MES_0.22-3,0.10081892823317969,0.04240425991764305,0.003179151612303294,0.007162170034519512,0.04244446991192269,0.0013378390137891896,0.04247303335024462,2.2166078018314428e-06,0.006252808869625549,0.3072491378716879,0.03324013788006878,0.020517280331157003,0.057041304717748556,0.018256401686823017,0.037161540126777755,7.965478166014053e-06,0.054581527586764204,0.0074553737362568285,0.021569312877438268,0.11330949429455607,0.08353564586152619,TARA_B100000959,(DCM) deep chlorophyll maximum layer (ENVO:01000326) & marine oxygen minimum zone (ENVO:01000065),Trades Biome,(SPO) South Pacific Ocean [MRGID:1910],"(SPSG) South Pacific Subtropical Gyre Province, North and South [MRGID:21486]",-12.93,-96.12,175.3,13.0,34.8,0.7,21.1,0.03,2.68
TARA_100_SRF_0.22-3,0.062382255641027125,0.0803232307940483,0.006574666940903915,0.03280289088820099,0.01930962384607598,0.0022681579542905804,0.07890582104746086,0.00030661268001897776,0.021484383004138838,0.34781872546839054,0.004102152105618939,0.04331234783320648,0.011822214621933825,0.03978175197406509,0.01678565013473548,0.0020634122119903976,0.09984658804977264,0.005301327158415226,0.008862837744205916,0.08169945727087521,0.03424589263062458,TARA_B100000963,(SRF) surface water layer (ENVO:00002042),Trades Biome,(SPO) South Pacific Ocean [MRGID:1910],"(SPSG) South Pacific Subtropical Gyre Province, North and South [MRGID:21486]",-12.99,-95.99,5.5,25.3,35.8,200.2,4.6,0.14,0.68
TARA_102_DCM_0.22-3,0.0627362880041391,0.07554322730807479,0.00326928556277179,0.02076712485983771,0.017439412099774433,0.006425743208304615,0.11390562291011276,0.0005271848146880783,0.010098893273645174,0.28164437807697973,0.013214081870181721,0.03830665364142402,0.009103879623519376,0.03109751586377503,0.043307102186958435,0.003704558085277061,0.08529355626690935,0.030675824523886883,0.01249595408949387,0.0701445461660749,0.07029916756417116,TARA_B100000902,(DCM) deep chlorophyll maximum layer (ENVO:01000326),Trades Biome,(SPO) South Pacific Ocean [MRGID:1910],(PEOD) Pacific Equatorial Divergence Province [MRGID:21489],-5.27,-85.23,45.7,19.6,34.9,103.9,20.3,1.2,1.86
TARA_102_MES_0.22-3,0.06975314921861074,0.042444246406484365,0.0010323418254895883,0.0036065590663542,0.06328960469736933,0.0005054368547503976,0.04217947108469977,2.6380226571395158e-05,0.0038088706704584056,0.12200455928361402,0.04264100871692858,0.017154525344490967,0.010317866595226662,0.03668791797502071,0.029595308179319598,8.425426681056714e-05,0.03011356746478319,0.004789951046757705,0.03378993333749738,0.18804177375865222,0.2581332739801102,TARA_B100000953,(MES) mesopelagic zone (ENVO:00000213) & marine oxygen minimum zone (ENVO:01000065),Trades Biome,(SPO) South Pacific Ocean [MRGID:1910],(PEOD) Pacific Equatorial Divergence Province [MRGID:21489],-5.27,-85.22,475.6,9.2,34.7,4.4,40.0,0.01,2.85
TARA_102_SRF_0.22-3,0.07762694909507788,0.08866370565478193,0.006156641370451253,0.028301294438328992,0.017489083809980294,0.006995695908175794,0.08393082503176785,0.0010862514987152955,0.022269992266310688,0.2961165671695966,0.008569516675725126,0.04553971429291824,0.00834994311009234,0.03764597243346256,0.026859573417323947,0.0030755637173293386,0.08319949097043615,0.024225481678359567,0.00967813211431356,0.06547930415276755,0.058740301194085034,TARA_B100000900,(SRF) surface water layer (ENVO:00002042),Trades Biome,(SPO) South Pacific Ocean [MRGID:1910],(PEOD) Pacific Equatorial Divergence Province [MRGID:21489],-5.25,-85.16,5.5,24.9,34.7,206.0,11.7,0.32,1.0
TARA_109_DCM_0.22-3,0.06240224831617481,0.07988078564072713,0.004335624195993594,0.03215836887166443,0.020603324801424867,0.007887768301944386,0.07920212176306604,0.001056100263244816,0.02481210415871964,0.31957529719288763,0.006311437074010295,0.046357370588789526,0.009909577123420844,0.0360211359018021,0.030695756199195023,0.002079707420101305,0.0829070871407696,0.014606019630077046,0.009309238173112045,0.0696129647123142,0.060275962530560834,TARA_B100000927,(DCM) deep chlorophyll maximum layer (ENVO:01000326),Coastal Biome ,(NPO) North Pacific Ocean [MRGID:1908],(CHIL) Chile-Peru Current Coastal Province [MRGID:21495],2.08,-84.52,29.8,26.5,34.3,203.1,3.9,0.11,0.5
TARA_109_DCM_<-0.22,0.004562433514439696,0.031591242955892225,0.0006606305426504906,0.01079498426252373,0.034582999591232864,9.751337506997019e-05,0.10269958302665776,0.005255927910874706,0.042397743735998236,0.1110790429814082,0.003835636281612449,0.03889954856480584,0.014965180926787029,0.0002616141331671432,0.010371314585827818,0.0,0.5268657955266682,0.0006967572654255045,0.026945898699764947,0.03333803926216232,9.811285703083328e-05,TARA_R100001510,(DCM) deep chlorophyll maximum layer (ENVO:01000326),Coastal Biome ,(NPO) North Pacific Ocean [MRGID:1908],(CHIL) Chile-Peru Current Coastal Province [MRGID:21495],2.08,-84.52,29.8,26.5,34.3,203.1,3.9,0.11,0.5
TARA_109_MES_0.22-3,0.06861065730728547,0.04615403165422695,0.00214940626690964,0.011471303176593698,0.06400046018142151,0.000797695962310804,0.03191763117184958,1.3716650580363035e-05,0.0067638473821896175,0.16751703202691437,0.03492409050487807,0.03234075872076217,0.016506763580603708,0.029197144406409074,0.04093922174191318,7.509276120902675e-05,0.05866448865480554,0.006024572745118349,0.03605574466576315,0.17505623654224914,0.17082010389600666,TARA_B100000929,(MES) mesopelagic zone (ENVO:00000213) & marine oxygen minimum zone (ENVO:01000065),Coastal Biome ,(NPO) North Pacific Ocean [MRGID:1908],(CHIL) Chile-Peru Current Coastal Province [MRGID:21495],2.07,-84.54,376.4,11.3,34.8,2.5,33.9,0.02,2.58
TARA_109_SRF_0.22-3,0.06691778650458587,0.09085813430690572,0.005591836225141636,0.03334796961067078,0.01718767399504972,0.0038748684997649396,0.07016490640729899,0.0006664488242188895,0.018880139010894404,0.32611497356249836,0.01002187893304211,0.03711340642422263,0.008281621321695519,0.0500731837796842,0.021807548556145175,0.0024251436975877014,0.07858920745877973,0.01608969782145063,0.008138191253772093,0.07238329710970151,0.06147208669688935,TARA_B100000925,(SRF) surface water layer (ENVO:00002042),Coastal Biome ,(NPO) North Pacific Ocean [MRGID:1908],(CHIL) Chile-Peru Current Coastal Province [MRGID:21495],1.99,-84.58,5.4,27.6,33.4,198.6,1.2,0.04,0.27
TARA_109_SRF_<-0.22,0.02141720027719754,0.04256281427175463,0.002120503205707322,0.034729475911082885,0.054229155617004844,0.0013359378081287863,0.06485816969731112,0.0,0.0536972345119659,0.09704992717875266,0.02346847904138754,0.04345544069489017,0.027827022212994032,0.0010731214884025437,0.017825984113034127,0.00020960295679508912,0.32794350016883067,0.003895371338576004,0.051151293319763584,0.12993486020184722,0.0012149059845735113,TARA_R100001509,(SRF) surface water layer (ENVO:00002042),Coastal Biome ,(NPO) North Pacific Ocean [MRGID:1908],(CHIL) Chile-Peru Current Coastal Province [MRGID:21495],1.99,-84.58,5.4,27.6,33.4,198.6,1.2,0.04,0.27
TARA_110_DCM_0.22-3,0.06356270462134082,0.05641121781562264,0.004116391494882808,0.03834262714983228,0.015799614838317134,0.01060947224024892,0.09563536226520757,0.000842427602350907,0.008176666647821438,0.2294677489471867,0.00630441811365905,0.060289125814425394,0.007432544424527827,0.0413308573836356,0.036128822898077124,0.002747410105829723,0.07899643951690484,0.010205277478636076,0.01183943039657181,0.11017419898411063,0.11158724126081075,TARA_B100001113,(DCM) deep chlorophyll maximum layer (ENVO:01000326),Trades Biome,(SPO) South Pacific Ocean [MRGID:1910],"(SPSG) South Pacific Subtropical Gyre Province, North and South [MRGID:21486]",-1.84,-84.63,48.7,21.8,35.1,144.6,10.9,0.41,0.93
TARA_110_MES_0.22-3,0.07816493697424368,0.044004675200239075,0.0024334443890329225,0.009452226632223346,0.052555195160730366,0.0025194163512561652,0.04793898806363767,0.00022611759856492152,0.006281966567889158,0.2012699067333831,0.03466883059153229,0.01961639279288416,0.023120526278901942,0.03372460961719718,0.033453548614488196,0.0005348794591009339,0.04465405703251743,0.006587727664863297,0.02586841584541981,0.1490495117493218,0.18387462668257276,TARA_B100001079,(MES) mesopelagic zone (ENVO:00000213) & marine oxygen minimum zone (ENVO:01000065),Trades Biome,(SPO) South Pacific Ocean [MRGID:1910],"(SPSG) South Pacific Subtropical Gyre Province, North and South [MRGID:21486]",-1.87,-84.62,376.9,10.3,34.8,1.3,34.6,0.0,2.8
TARA_110_SRF_0.22-3,0.06907722489730722,0.07546377530375886,0.0057156805652321474,0.032310788497761395,0.018454680319882313,0.011709153903346016,0.07306135994218978,0.0013904311268119346,0.017235728093323417,0.29027777496822743,0.0077799358845911165,0.054296203854169556,0.008141356244671492,0.03880684833127181,0.03686388213476239,0.0029240458529591674,0.07421953499591304,0.013834266186982526,0.016226390638051865,0.08618127519034093,0.06602966306844546,TARA_B100001109,(SRF) surface water layer (ENVO:00002042),Trades Biome,(SPO) South Pacific Ocean [MRGID:1910],"(SPSG) South Pacific Subtropical Gyre Province, North and South [MRGID:21486]",-2.01,-84.59,5.5,23.9,35.0,190.8,6.7,0.31,0.75
TARA_111_DCM_0.22-3,0.06489723297188853,0.04308184190207565,0.002378834589478906,0.01824519722467028,0.015211576742715923,0.005855701409528344,0.08087139498132519,0.0005246270599533131,0.0038146189149246426,0.40876412151974,0.005402799423055157,0.026398501341617833,0.005641436649868393,0.0445340753513137,0.03408206578665967,0.0016035594440858114,0.06375111769931861,0.016263992566254073,0.006242512970383993,0.08490932998739785,0.06752546146374411,TARA_B100000579,(DCM) deep chlorophyll maximum layer (ENVO:01000326),Trades Biome,(SPO) South Pacific Ocean [MRGID:1910],"(SPSG) South Pacific Subtropical Gyre Province, North and South [MRGID:21486]",-16.96,-100.7,89.0,19.9,35.7,211.5,1.4,0.2,0.44
TARA_111_MES_0.22-3,0.07269338466503204,0.04335389688479474,0.0010809925566304533,0.004852922378229948,0.0628415780187745,0.0011678356346730557,0.037188946220075805,2.195675148160231e-06,0.0057282766107404235,0.17524526664802711,0.037251273717820686,0.01550340680105397,0.014201154700968452,0.03553254161835193,0.03718158387129831,1.599759997610641e-05,0.038735932868766504,0.006025750379093905,0.02661412555164634,0.16819015309338045,0.21659278450551697,TARA_B100000586,(MES) mesopelagic zone (ENVO:00000213) & marine oxygen minimum zone (ENVO:01000065),Trades Biome,(SPO) South Pacific Ocean [MRGID:1910],"(SPSG) South Pacific Subtropical Gyre Province, North and South [MRGID:21486]",-16.96,-100.66,347.1,10.9,34.7,3.2,30.4,0.01,2.73
TARA_111_SRF_0.22-3,0.06675265496172382,0.050024837200590616,0.005968588945563557,0.03071972408073946,0.01715330003323517,0.009503072177395632,0.06303174759908989,0.0010891626493643213,0.01807743646803747,0.3331874060116702,0.004129051838273772,0.037886597942304964,0.011023620468004751,0.047376472705658285,0.029791590967399865,0.0019332502870715836,0.08603823483410387,0.00510439563681006,0.008765507734914631,0.09345804811544234,0.07898529934260572,TARA_B100000575,(SRF) surface water layer (ENVO:00002042),Trades Biome,(SPO) South Pacific Ocean [MRGID:1910],"(SPSG) South Pacific Subtropical Gyre Province, North and South [MRGID:21486]",-16.96,-100.63,5.9,22.8,36.0,208.9,2.6,0.04,0.5
TARA_112_DCM_0.22-3,0.05761287988786762,0.042148981386017394,0.0035092350685016712,0.01624962859057937,0.023192909614665767,0.005422913668824545,0.0753482757070082,0.0004231420415116695,0.01738515688568219,0.4100270217058713,0.006114625561376591,0.029710663383580447,0.008062718465972639,0.04126108155458869,0.04349683815457935,0.0013116306187025484,0.05691055676332289,0.013667126418877016,0.010999028248532362,0.0888936649867081,0.04825192128722979,TARA_B100000945,(DCM) deep chlorophyll maximum layer (ENVO:01000326),Trades Biome,(SPO) South Pacific Ocean [MRGID:1910],"(SPSG) South Pacific Subtropical Gyre Province, North and South [MRGID:21486]",-23.19,-129.54,153.5,22.3,35.9,207.1,0.5,0.0,0.11
TARA_112_MES_0.22-3,0.060611834019801615,0.04871707382969755,0.002570494964817577,0.010044427346824944,0.07175046141704307,0.001267748951844564,0.030668269093713254,0.0,0.009697560193310709,0.10965226166553896,0.039793354701437744,0.01951759851950678,0.01020177384726613,0.03283271515222596,0.038782420316710454,1.3674056399915466e-05,0.07729611428839397,0.0055599465392875465,0.032657088247584,0.18612346703268237,0.21224171581591278,TARA_B100000949,(MES) mesopelagic zone (ENVO:00000213),Trades Biome,(SPO) South Pacific Ocean [MRGID:1910],"(SPSG) South Pacific Subtropical Gyre Province, North and South [MRGID:21486]",-23.2,-129.64,689.3,5.8,34.3,199.2,29.2,0.01,2.15
TARA_112_SRF_0.22-3,0.05311536837577152,0.03620019046118765,0.0034597181196001593,0.015297881175996581,0.01473989442377285,0.0023471959121354156,0.09882089727954357,0.00018518005387663027,0.0283841185831084,0.4003935754517467,0.005553855584848399,0.02031678325019236,0.007479842240935672,0.05732327083199117,0.045199015412599526,0.001107399649270578,0.06204208299375424,0.008230870783152721,0.005430784413245583,0.0923290056692004,0.04204306933406977,TARA_B100000941,(SRF) surface water layer (ENVO:00002042),Trades Biome,(SPO) South Pacific Ocean [MRGID:1910],"(SPSG) South Pacific Subtropical Gyre Province, North and South [MRGID:21486]",-23.28,-129.4,5.4,24.2,36.5,202.2,-0.9,0.01,0.14
TARA_122_DCM_0.1-0.22,0.012016030278577627,0.039276514207405515,0.00262180781703208,0.018773891598307748,0.06426560744280702,0.00040781453030450685,0.14610877287048452,1.2787924991770153e-05,0.007380632809576243,0.09678223422559272,0.016651498012602472,0.06555399942303722,0.03373467093247717,0.0013774912865016275,0.026507364390395964,8.314840792273191e-05,0.3266127186320932,0.002551079039297415,0.039601870923339846,0.09388023316409448,0.005799832083157993,TARA_Y100001973,(DCM) deep chlorophyll maximum layer (ENVO:01000326),Trades Biome,(SPO) South Pacific Ocean [MRGID:1910],"(SPSG) South Pacific Subtropical Gyre Province, North and South [MRGID:21486]",-8.98,-139.2,113.3,24.7,36.1,179.9,2.3,0.1,0.59
TARA_122_DCM_0.22-0.45,0.08054576060159856,0.06201673115905916,0.004398875477635852,0.019241882329363226,0.04781778472134387,0.0015399616625537183,0.0690779639524408,2.4420556954367598e-05,0.006016182334465252,0.20905732899162577,0.01939178635384561,0.04159598992781307,0.015956424146667744,0.021108594205231767,0.07014581135972946,0.000664482241903284,0.08482274429209419,0.025714239337414093,0.023167040388787103,0.12805120357223176,0.0696447923872413,TARA_Y100001970,(DCM) deep chlorophyll maximum layer (ENVO:01000326),Trades Biome,(SPO) South Pacific Ocean [MRGID:1910],"(SPSG) South Pacific Subtropical Gyre Province, North and South [MRGID:21486]",-8.98,-139.2,113.3,24.7,36.1,179.9,2.3,0.1,0.59
TARA_122_DCM_0.22-3,0.06346964040694453,0.05763123660613542,0.002912650457640671,0.026770609782434673,0.032962687857934506,0.0037997799856977097,0.05582638755863348,0.00040547732359802897,0.0056938652820215,0.24823609420227513,0.016474850233665118,0.0462742259040407,0.016165685230983856,0.031237845058146044,0.051430537138054344,0.0007823937759069405,0.1058610932867473,0.01399024448182774,0.02961329304142351,0.1259424437306344,0.06451895865525425,TARA_B100000700,(DCM) deep chlorophyll maximum layer (ENVO:01000326),Trades Biome,(SPO) South Pacific Ocean [MRGID:1910],"(SPSG) South Pacific Subtropical Gyre Province, North and South [MRGID:21486]",-8.98,-139.2,113.3,24.7,36.1,179.9,2.3,0.1,0.59
TARA_122_DCM_0.45-0.8,0.042375072274905064,0.03532917863539646,0.003355581601599167,0.02218982044805022,0.03718034946532105,0.0013367494505560345,0.05537099514267716,0.00011975760012697895,0.005439004569543364,0.3763088911105264,0.021894648100753224,0.04645786016402634,0.009303937514351185,0.039032800916282216,0.028198797001027873,0.00044878621800665945,0.0897250653894977,0.003047598421358447,0.027321790550679684,0.12724198917993498,0.028321326245379745,TARA_Y100001968,(DCM) deep chlorophyll maximum layer (ENVO:01000326),Trades Biome,(SPO) South Pacific Ocean [MRGID:1910],"(SPSG) South Pacific Subtropical Gyre Province, North and South [MRGID:21486]",-8.98,-139.2,113.3,24.7,36.1,179.9,2.3,0.1,0.59
TARA_122_MES_0.1-0.22,0.02632393459493592,0.04495346744639757,0.005717983959141903,0.03296671240803693,0.10152819163059205,0.0006718981782752381,0.041335732979503124,3.8573029583847346e-05,0.005022182644949449,0.0724792879549714,0.044220870420185014,0.06271116079068802,0.021638882170135397,0.008416569741926196,0.03270299333675742,0.00010707034984858859,0.22563680871129976,0.004309880620433764,0.04999786055999843,0.16287243594732376,0.05634750252501625,TARA_Y100001951,(MES) mesopelagic zone (ENVO:00000213),Trades Biome,(SPO) South Pacific Ocean [MRGID:1910],"(SPSG) South Pacific Subtropical Gyre Province, North and South [MRGID:21486]",-8.99,-139.23,594.6,7.2,34.6,38.1,42.5,0.02,2.43
TARA_122_MES_0.22-0.45,0.06502196018499881,0.039626263554329785,0.0007844005669584294,0.003094626701982434,0.06872343061218311,0.0004885174544683266,0.045820005665919296,7.549352273709149e-07,0.002598719235030778,0.07607637995527541,0.052552192542266764,0.009195768924654605,0.005114947618036215,0.039466946326804364,0.023725112072447263,2.498181659933567e-05,0.02739365026702023,0.004936012560134909,0.03245880231687473,0.20440091154732537,0.29849561514146244,TARA_Y100001949,(MES) mesopelagic zone (ENVO:00000213),Trades Biome,(SPO) South Pacific Ocean [MRGID:1910],"(SPSG) South Pacific Subtropical Gyre Province, North and South [MRGID:21486]",-8.99,-139.23,594.6,7.2,34.6,38.1,42.5,0.02,2.43
TARA_122_MES_0.22-3,0.06064985911656796,0.04624113214728409,0.002698514255320769,0.012464912528700512,0.06812905839674785,0.0013893530630422226,0.03385655753815547,6.475260243754193e-05,0.00823088427619162,0.13420901802575183,0.03925379440121273,0.02265787798146276,0.01184963423799542,0.03444907881466437,0.043254521980013415,0.00014758960416437597,0.04816448811014955,0.006523443216477314,0.03036512133949681,0.1865497937978554,0.208850614566308,TARA_B100000678,(MES) mesopelagic zone (ENVO:00000213),Trades Biome,(SPO) South Pacific Ocean [MRGID:1910],"(SPSG) South Pacific Subtropical Gyre Province, North and South [MRGID:21486]",-8.99,-139.23,594.6,7.2,34.6,38.1,42.5,0.02,2.43
TARA_122_MES_0.45-0.8,0.04182042484525895,0.0710065683910471,0.0025730320093002097,0.021186095349623582,0.0616853566931506,0.0012923763385724815,0.02229814159039723,2.0379853554947272e-05,0.009881426545150373,0.19532118238016902,0.02894868792304718,0.061252318393655074,0.02582692048945185,0.01745687430460081,0.05038962838948352,5.6647664789659304e-05,0.09532061342083738,0.010612737978261906,0.06251034883874945,0.1694327427499024,0.051107495850996394,TARA_Y100001947,(MES) mesopelagic zone (ENVO:00000213),Trades Biome,(SPO) South Pacific Ocean [MRGID:1910],"(SPSG) South Pacific Subtropical Gyre Province, North and South [MRGID:21486]",-8.99,-139.23,594.6,7.2,34.6,38.1,42.5,0.02,2.43
TARA_122_SRF_0.1-0.22,0.028920626959876287,0.023394304602832334,0.0010185237093673157,0.01284950234715654,0.04362997867893815,0.000614616826580001,0.11335986975673713,4.167309596367178e-05,0.015347401822139586,0.1470964071271743,0.026402426879725893,0.036465221873249604,0.01798361089406476,0.0037917517621878266,0.020125414013230307,0.00045249878906816196,0.32323590010605063,0.004092077269020575,0.044088573740072946,0.13028195041762183,0.0068076693289421866,TARA_Y100001972,(SRF) surface water layer (ENVO:00002042),Trades Biome,(SPO) South Pacific Ocean [MRGID:1910],"(SPSG) South Pacific Subtropical Gyre Province, North and South [MRGID:21486]",-8.99,-139.21,5.9,26.5,35.4,186.2,4.0,0.12,0.57
TARA_122_SRF_0.22-0.45,0.06990333867465068,0.07001100170588588,0.005439731474290078,0.035159055408279065,0.021216336218906593,0.002312517174724423,0.03844851855106799,2.7508057610691135e-05,0.014907965588980622,0.24295513142692998,0.005431407515256688,0.024571664062091852,0.008893545826491081,0.049121272187248495,0.019488949665605625,0.0005065378008588797,0.12128999595816461,0.006091846432401932,0.011374654611531459,0.13358386279662926,0.11926515886239418,TARA_Y100001980,(SRF) surface water layer (ENVO:00002042),Trades Biome,(SPO) South Pacific Ocean [MRGID:1910],"(SPSG) South Pacific Subtropical Gyre Province, North and South [MRGID:21486]",-8.99,-139.21,5.9,26.5,35.4,186.2,4.0,0.12,0.57
TARA_122_SRF_0.22-3,0.07157835053547872,0.053719375400397375,0.004037260242488975,0.03447860471331943,0.01786036815735917,0.006259381080167727,0.04989728857571932,0.0008825412854439337,0.01870239635647092,0.3257690620631717,0.004663641574815716,0.030238237665355525,0.007750958364695741,0.05456985841590666,0.024947784283364846,0.0010715356047457604,0.08208115682942528,0.005828205309814308,0.01049218119859646,0.10708723848181313,0.08808457386144943,TARA_B100001115,(SRF) surface water layer (ENVO:00002042),Trades Biome,(SPO) South Pacific Ocean [MRGID:1910],"(SPSG) South Pacific Subtropical Gyre Province, North and South [MRGID:21486]",-8.99,-139.21,5.9,26.5,35.4,186.2,4.0,0.12,0.57
TARA_122_SRF_0.45-0.8,0.06680480345962232,0.022377298199648264,0.0016526929148098282,0.017007702784313745,0.012256684885808564,0.0022381709286181605,0.06788102433452185,0.0002947330637679474,0.036523470031826155,0.47598199008244063,0.004183657527380324,0.016014550614521093,0.004543215205088053,0.07360897152140375,0.01880764708349591,0.0005796988615933531,0.05379178854753982,0.001572678384164089,0.006587582161155868,0.08521186204704034,0.03207977736124003,TARA_Y100001978,(SRF) surface water layer (ENVO:00002042),Trades Biome,(SPO) South Pacific Ocean [MRGID:1910],"(SPSG) South Pacific Subtropical Gyre Province, North and South [MRGID:21486]",-8.99,-139.21,5.9,26.5,35.4,186.2,4.0,0.12,0.57
TARA_123_MIX_0.1-0.22,0.01577730798124085,0.03331067264401811,0.002049599264808446,0.013905574045603235,0.06742565790645022,0.001160783013293959,0.1586991006362036,1.5474718390018867e-05,0.010342014600917167,0.0598761999474896,0.022880106471578007,0.02456932843207338,0.03077352670882536,0.0037798477510768633,0.017215330629222567,0.00014063403841654327,0.4113986953576367,0.003300573754703586,0.0323730495985245,0.07689296121316973,0.014113561286357575,TARA_Y100001963,(MIX) marine epipelagic mixed layer (ENVO:01000061),Trades Biome,(SPO) South Pacific Ocean [MRGID:1910],"(SPSG) South Pacific Subtropical Gyre Province, North and South [MRGID:21486]",-8.9,-140.29,148.0,22.1,35.9,161.3,5.0,1.47,0.66
TARA_123_MIX_0.22-0.45,0.0638363982461694,0.06942678908492642,0.001376489622253526,0.015516065361743063,0.055115098171525836,0.0017445820870862102,0.027977175595449485,1.0062960493209659e-05,0.007618795340444445,0.16572915668313326,0.03984590115046975,0.03244301405575703,0.015156025510433916,0.033489989364782556,0.06935448925059123,8.313182578548047e-05,0.05788615773573062,0.00807433094981532,0.03294542074912432,0.16223859299045254,0.14013233326383234,TARA_Y100001960,(MIX) marine epipelagic mixed layer (ENVO:01000061),Trades Biome,(SPO) South Pacific Ocean [MRGID:1910],"(SPSG) South Pacific Subtropical Gyre Province, North and South [MRGID:21486]",-8.9,-140.29,148.0,22.1,35.9,161.3,5.0,1.47,0.66
TARA_123_MIX_0.22-3,0.0716101956521111,0.05292950142636868,0.0010987789166835935,0.011174192434384599,0.05788738016521635,0.0031200345635783314,0.02997635654982239,3.9199359888916515e-05,0.007123178583234577,0.17400968522969165,0.03437227171482482,0.021882927007456584,0.014704192362445601,0.03996227664404457,0.07086480144911664,0.0001714528586202366,0.03889794068638696,0.01099986057932353,0.025146643066366662,0.16619745674018702,0.16783167401024712,TARA_B100000686,(MIX) marine epipelagic mixed layer (ENVO:01000061),Trades Biome,(SPO) South Pacific Ocean [MRGID:1910],"(SPSG) South Pacific Subtropical Gyre Province, North and South [MRGID:21486]",-8.9,-140.29,148.0,22.1,35.9,161.3,5.0,1.47,0.66
TARA_123_MIX_0.45-0.8,0.02274246933039168,0.09719665694700333,0.0017447175182327614,0.03134903880124686,0.05724490878465353,0.0021615960444448263,0.028948150558121433,4.722234282517184e-05,0.0031072045108603806,0.13220237145155442,0.03273662199840459,0.1370994547679272,0.029308835294954,0.004809574825116962,0.037661323831998716,0.00033591015192139026,0.11597824229449827,0.0014439975386787392,0.08637176860002922,0.16335771251858985,0.014152221888546722,TARA_Y100001956,(MIX) marine epipelagic mixed layer (ENVO:01000061),Trades Biome,(SPO) South Pacific Ocean [MRGID:1910],"(SPSG) South Pacific Subtropical Gyre Province, North and South [MRGID:21486]",-8.9,-140.29,148.0,22.1,35.9,161.3,5.0,1.47,0.66
TARA_123_SRF_0.22-0.45,0.08468430030521126,0.15828964773993212,0.005952265206160128,0.018222269818402845,0.03498420767990426,0.003728031258750507,0.018630894537853205,1.0991097063893258e-05,0.0024798024455471514,0.1895585047851908,0.00504561364121127,0.030842061048775127,0.007796064196155879,0.014200954590083595,0.051037537246656633,0.0012167587387107946,0.12323884060790825,0.040948074635149434,0.021101085432187222,0.10439685728296004,0.0836352377061855,TARA_Y100001958,(SRF) surface water layer (ENVO:00002042),Trades Biome,(SPO) South Pacific Ocean [MRGID:1910],"(SPSG) South Pacific Subtropical Gyre Province, North and South [MRGID:21486]",-8.91,-140.28,5.5,26.6,35.4,189.8,3.9,0.14,0.53
TARA_123_SRF_0.22-3,0.056803173641617376,0.08141807556175737,0.009048287625234248,0.03862764417850206,0.022707979511297997,0.02818594971205169,0.033335012995335665,0.0019869561327910783,0.004101814828419839,0.16447916117299943,0.014895001329830517,0.06557631821416511,0.011734278869109575,0.04084809195026417,0.07424411442568014,0.00893898389321896,0.08576767299459544,0.014055442342844402,0.023409629462858038,0.12265051614431749,0.09718589501310947,TARA_B100000683,(SRF) surface water layer (ENVO:00002042),Trades Biome,(SPO) South Pacific Ocean [MRGID:1910],"(SPSG) South Pacific Subtropical Gyre Province, North and South [MRGID:21486]",-8.91,-140.28,5.5,26.6,35.4,189.8,3.9,0.14,0.53
TARA_123_SRF_0.45-0.8,0.04876541370951729,0.06778797261526257,0.010458591651543237,0.039033075202012546,0.028400043813230635,0.026082050602605374,0.034194614599350595,0.000289568366942099,0.0058469678631191966,0.1832367937646907,0.017143099142485664,0.06852420064336731,0.011118697782745409,0.04263800489507875,0.07272344680495521,0.01001732905294691,0.08587686548182162,0.00990787363542698,0.02311821389817379,0.12757054669494258,0.08726662977978149,TARA_Y100001954,(SRF) surface water layer (ENVO:00002042),Trades Biome,(SPO) South Pacific Ocean [MRGID:1910],"(SPSG) South Pacific Subtropical Gyre Province, North and South [MRGID:21486]",-8.91,-140.28,5.5,26.6,35.4,189.8,3.9,0.14,0.53
TARA_124_MIX_0.1-0.22,0.01643088786756642,0.032024892523470606,0.0020327609273222487,0.00977295486472244,0.09749156978315825,0.0018453721791994123,0.1242029579292533,0.0004041944732358941,0.008491144763134017,0.11289568924455526,0.01715573502325426,0.026467454751941382,0.027251034532518755,0.015252299694054606,0.018917520583818397,0.000978867856990495,0.3933903227091209,0.002725629272021169,0.029770917123870096,0.04804345016522175,0.014454343731570271,TARA_Y100001938,(MIX) marine epipelagic mixed layer (ENVO:01000061),Trades Biome,(SPO) South Pacific Ocean [MRGID:1910],"(SPSG) South Pacific Subtropical Gyre Province, North and South [MRGID:21486]",-9.07,-140.62,118.3,25.2,35.8,175.9,4.5,0.35,0.49
TARA_124_MIX_0.22-0.45,0.08094346357545004,0.04866570932695542,0.001047117320080746,0.006056636626872834,0.05783457431117819,0.0007645465360899466,0.04350020486656625,5.6775893519458085e-06,0.0020392953551039345,0.10456963850944996,0.04948821201813579,0.010856728124709319,0.007144290448626363,0.040730262856733375,0.05119619516891974,0.0003353689394630498,0.02621647517161406,0.0096357221765358,0.028737125985890868,0.19201505677091782,0.23821769832135464,TARA_Y100001936,(MIX) marine epipelagic mixed layer (ENVO:01000061),Trades Biome,(SPO) South Pacific Ocean [MRGID:1910],"(SPSG) South Pacific Subtropical Gyre Province, North and South [MRGID:21486]",-9.07,-140.62,118.3,25.2,35.8,175.9,4.5,0.35,0.49
TARA_124_MIX_0.22-3,0.07531425335471727,0.06476897652081895,0.0015805689985503545,0.013987870672514346,0.05263565170307886,0.002654120084281474,0.035877796453254764,0.00011203346810901008,0.004360433778354909,0.1430088276760497,0.03849877506265582,0.02294704316329511,0.009936244672603197,0.04186398971060986,0.053415999980243566,0.0006526985910778252,0.04650772867925499,0.010815387962526304,0.027907122246021546,0.1659303444878939,0.1872241327340883,TARA_B100000676,(MIX) marine epipelagic mixed layer (ENVO:01000061),Trades Biome,(SPO) South Pacific Ocean [MRGID:1910],"(SPSG) South Pacific Subtropical Gyre Province, North and South [MRGID:21486]",-9.07,-140.62,118.3,25.2,35.8,175.9,4.5,0.35,0.49
TARA_124_MIX_0.45-0.8,0.053468281607861844,0.08005198613887529,0.002603516926057817,0.021648368319857732,0.05516384725380742,0.00253053762514802,0.02956960504629912,3.6604598099992795e-05,0.007788588852278131,0.17655532876690214,0.030416053323331072,0.05330906078780707,0.015833397816182634,0.03350146341714248,0.053613342783793004,0.0003878115183191481,0.08052195153149326,0.008859125857718463,0.03845217512700163,0.15029884181345748,0.10539011088856637,TARA_Y100001934,(MIX) marine epipelagic mixed layer (ENVO:01000061),Trades Biome,(SPO) South Pacific Ocean [MRGID:1910],"(SPSG) South Pacific Subtropical Gyre Province, North and South [MRGID:21486]",-9.07,-140.62,118.3,25.2,35.8,175.9,4.5,0.35,0.49
TARA_124_SRF_0.1-0.22,0.014598719672009285,0.03293990641759967,0.0032563633540697557,0.021307792942460314,0.06799106283500381,0.0006292149523212383,0.1194967354636434,2.7797564287171933e-05,0.01573467882714313,0.15778268444426202,0.0338628223556327,0.025737608911901994,0.014279865688361905,0.004572508788971922,0.02128438054609023,0.0006510876983479696,0.33427333923702945,0.002992223090192798,0.03891494341875914,0.08064268293683628,0.009023580855075757,TARA_Y100001937,(SRF) surface water layer (ENVO:00002042),Trades Biome,(SPO) South Pacific Ocean [MRGID:1910],"(SPSG) South Pacific Subtropical Gyre Province, North and South [MRGID:21486]",-9.11,-140.58,9.9,26.5,35.4,190.7,5.1,0.16,0.63
TARA_124_SRF_0.22-0.45,0.07371061578028532,0.10509024781408138,0.006664708489011926,0.025137869895961822,0.039553837973075094,0.004260464533480889,0.024532317210877334,1.3880342108214874e-05,0.012447538606114647,0.22401388553453,0.013645002050967437,0.02751034323035795,0.013067107486406592,0.030210124302697317,0.03747929805997429,0.001762715383174554,0.12679291063430878,0.01666895843983862,0.02661387984620868,0.11013016494591299,0.08069412944062627,TARA_Y100001935,(SRF) surface water layer (ENVO:00002042),Trades Biome,(SPO) South Pacific Ocean [MRGID:1910],"(SPSG) South Pacific Subtropical Gyre Province, North and South [MRGID:21486]",-9.11,-140.58,9.9,26.5,35.4,190.7,5.1,0.16,0.63
TARA_124_SRF_0.22-3,0.06481016886778725,0.07663341584622407,0.004466361257318742,0.021336575936787155,0.028955113414680156,0.009513563313679134,0.05399809199708237,0.0010550917871898129,0.012372324425536577,0.284981648386594,0.020649801193158308,0.03977461965593959,0.012249960440425495,0.06049134223358195,0.045413329369920014,0.004466603487855935,0.08341639607822236,0.009500645078565094,0.016536952194761242,0.08519076546486654,0.06418722956982412,TARA_B100000674,(SRF) surface water layer (ENVO:00002042),Trades Biome,(SPO) South Pacific Ocean [MRGID:1910],"(SPSG) South Pacific Subtropical Gyre Province, North and South [MRGID:21486]",-9.11,-140.58,9.9,26.5,35.4,190.7,5.1,0.16,0.63
TARA_124_SRF_0.45-0.8,0.05328288094602243,0.053869157361842536,0.0032541594239608998,0.019235727646166174,0.04498573958086043,0.0022387969922050086,0.06532399755455873,5.554015825133713e-05,0.02623807257224116,0.3473512075631954,0.023722267481037413,0.033097856052299285,0.013341453681266484,0.061962097420943676,0.023730917930673064,0.0008033454068769292,0.07965294363173941,0.004102350289842259,0.023424655893900758,0.10179296820421563,0.018533864207901055,TARA_Y100001933,(SRF) surface water layer (ENVO:00002042),Trades Biome,(SPO) South Pacific Ocean [MRGID:1910],"(SPSG) South Pacific Subtropical Gyre Province, North and South [MRGID:21486]",-9.11,-140.58,9.9,26.5,35.4,190.7,5.1,0.16,0.63
TARA_125_MIX_0.1-0.22,0.009978206476293132,0.024859016163465853,0.0022744709123829164,0.013547243125081933,0.1263305032290315,0.0003225847315123147,0.03296230613949965,5.844869628745198e-06,0.02136450342483362,0.0310679545560685,0.026916653961986517,0.012944775588523664,0.013713396890541692,0.0028322846373268046,0.013752996417921036,6.110757643600366e-05,0.5649121125893941,0.004008224671668548,0.018083265780413915,0.06741108938678539,0.012651458871204146,TARA_Y100000593,(MIX) marine epipelagic mixed layer (ENVO:01000061),Trades Biome,(SPO) South Pacific Ocean [MRGID:1910],"(SPSG) South Pacific Subtropical Gyre Province, North and South [MRGID:21486]",-8.9,-142.58,138.2,23.7,36.3,160.5,3.7,0.06,0.56
TARA_125_MIX_0.22-0.45,0.09536275731527151,0.11954774492165082,0.003587904106653746,0.02848423437777646,0.03353745618413464,0.003054167631403826,0.01167629235104954,1.5631770909597555e-05,0.004108595413858014,0.16182849016835,0.0057704495432988985,0.034106648138669766,0.007215955870163291,0.039467391605208256,0.034401172625193724,0.001593756078205302,0.1068894916528891,0.026298878692216084,0.016988725348736508,0.11651531562009966,0.14954894058426135,TARA_Y100000591,(MIX) marine epipelagic mixed layer (ENVO:01000061),Trades Biome,(SPO) South Pacific Ocean [MRGID:1910],"(SPSG) South Pacific Subtropical Gyre Province, North and South [MRGID:21486]",-8.9,-142.58,138.2,23.7,36.3,160.5,3.7,0.06,0.56
TARA_125_MIX_0.22-3,0.07025686189018826,0.05632541282694933,0.0019229288725501868,0.01292884642947673,0.06044887994389262,0.00223285002237668,0.02704738279911723,5.9921373803324615e-06,0.003353389313561069,0.1284352650126461,0.0346217471766721,0.026320792489630568,0.014231463833794424,0.044053713375010774,0.062390675670934384,8.442204678007473e-05,0.05673027648404323,0.01059886369771785,0.033768627242786974,0.18086380264817095,0.17337780608632,TARA_B100001123,(MIX) marine epipelagic mixed layer (ENVO:01000061),Trades Biome,(SPO) South Pacific Ocean [MRGID:1910],"(SPSG) South Pacific Subtropical Gyre Province, North and South [MRGID:21486]",-8.9,-142.58,138.2,23.7,36.3,160.5,3.7,0.06,0.56
TARA_125_MIX_0.45-0.8,0.05965974459043,0.03746953013922967,0.001968931113287697,0.020895417428725305,0.03314077288404285,0.0014246534520056299,0.05593922158517391,0.00017912539050932567,0.030355385695680318,0.36839944997260565,0.01129681691997256,0.03533449252313612,0.006756696011900919,0.06590843687416835,0.028477523569651917,0.000946346725559047,0.0657121176202033,0.0027178285996888162,0.014678827414418519,0.10323180911988482,0.05550687236972525,TARA_Y100000589,(MIX) marine epipelagic mixed layer (ENVO:01000061),Trades Biome,(SPO) South Pacific Ocean [MRGID:1910],"(SPSG) South Pacific Subtropical Gyre Province, North and South [MRGID:21486]",-8.9,-142.58,138.2,23.7,36.3,160.5,3.7,0.06,0.56
TARA_125_SRF_0.1-0.22,0.020574600574884833,0.051995580794212626,0.005547196341745921,0.02661264802724646,0.10244246504320223,0.0008539598956214934,0.05232779728577713,2.56264690113742e-05,0.036710052203501896,0.10026362969847566,0.04433898482983821,0.03971697889905064,0.01389460363261282,0.004097796865867587,0.026220145987963798,0.0014237694088028196,0.2950132231217297,0.004431014569353336,0.04623525283851302,0.11393558023418765,0.01333909327840063,TARA_Y100000592,(SRF) surface water layer (ENVO:00002042),Trades Biome,(SPO) South Pacific Ocean [MRGID:1910],"(SPSG) South Pacific Subtropical Gyre Province, North and South [MRGID:21486]",-8.91,-142.56,5.5,26.8,35.4,187.3,5.0,0.19,0.56
TARA_125_SRF_0.22-0.45,0.07578862150931004,0.033640701101639525,0.0005649266246838107,0.002886799694552534,0.06649896863329265,0.0004858709379345054,0.03275364738215249,0.0,0.0014743760969195816,0.09621271523335843,0.04562522621757405,0.005259083231700009,0.008229362729222797,0.051837122788709215,0.05260967637511901,4.813121194130052e-05,0.020728436370826216,0.008354297240824687,0.02970438594122182,0.21662962070958786,0.2506680299694295,TARA_Y100000590,(SRF) surface water layer (ENVO:00002042),Trades Biome,(SPO) South Pacific Ocean [MRGID:1910],"(SPSG) South Pacific Subtropical Gyre Province, North and South [MRGID:21486]",-8.91,-142.56,5.5,26.8,35.4,187.3,5.0,0.19,0.56
TARA_125_SRF_0.22-3,0.07820858137166158,0.08744383654232869,0.004964589045005218,0.025020874446368975,0.03452629360262282,0.00752166165671671,0.03170461042277613,0.00123921933036113,0.013886207271814619,0.2414374726005623,0.013460698985455525,0.04254014159842674,0.007904167286328548,0.046657866577723695,0.04401703400804772,0.002542274421590813,0.08483170642553876,0.016315408841827122,0.017157181638001083,0.09683249015946226,0.10178768376737951,TARA_B100001121,(SRF) surface water layer (ENVO:00002042),Trades Biome,(SPO) South Pacific Ocean [MRGID:1910],"(SPSG) South Pacific Subtropical Gyre Province, North and South [MRGID:21486]",-8.91,-142.56,5.5,26.8,35.4,187.3,5.0,0.19,0.56
TARA_125_SRF_0.45-0.8,0.046678418334811705,0.11265100083272209,0.0029418622236034773,0.026530473999973592,0.05133005311141442,0.002853088176319388,0.017236811644798067,1.8940081216051132e-05,0.009167636475677123,0.13735506368709943,0.04652218058189998,0.04793372545922741,0.019323631564913568,0.02099676965231309,0.057469831992696785,7.892123668237162e-05,0.16233847725261938,0.008624373493570292,0.03988153126874017,0.13237772307256326,0.05768948585713814,TARA_Y100000588,(SRF) surface water layer (ENVO:00002042),Trades Biome,(SPO) South Pacific Ocean [MRGID:1910],"(SPSG) South Pacific Subtropical Gyre Province, North and South [MRGID:21486]",-8.91,-142.56,5.5,26.8,35.4,187.3,5.0,0.19,0.56
TARA_128_DCM_0.22-3,0.05806859409689859,0.06677515462608187,0.0034653168727729927,0.03156869812616038,0.025495336447553963,0.007480232430824762,0.04028470467020272,0.0010523029263095264,0.01731411859896696,0.2527921765849444,0.01765234565471891,0.04491451908635924,0.008242644482762367,0.043098726672322,0.037577521587557665,0.0031514336693965056,0.10319554638741524,0.009700913247412138,0.020258760066659515,0.12320917493269802,0.08470177883198225,TARA_B100000614,(DCM) deep chlorophyll maximum layer (ENVO:01000326),Trades Biome,(SPO) South Pacific Ocean [MRGID:1910],(PEOD) Pacific Equatorial Divergence Province [MRGID:21489],0.0,-153.68,41.7,26.1,35.1,177.0,4.4,0.28,0.55
TARA_128_SRF_0.22-3,0.06302714520590683,0.06535413546770855,0.005093295968149095,0.028888370162226607,0.021254075265567038,0.010884536456012846,0.045604929575945884,0.0019117128555771387,0.020357517132095763,0.27471668032648083,0.011218427839133783,0.04492186540295936,0.007536515202356573,0.049757420663090746,0.042054267282421155,0.0037368618313844393,0.08099069988780501,0.008299431371125975,0.017707409400034093,0.108814668231847,0.0878700344721712,TARA_B100000609,(SRF) surface water layer (ENVO:00002042),Trades Biome,(SPO) South Pacific Ocean [MRGID:1910],(PEOD) Pacific Equatorial Divergence Province [MRGID:21489],0.0,-153.68,5.4,26.1,35.1,179.9,2.5,0.27,0.54
TARA_132_DCM_0.22-3,0.0705592084938995,0.03609456432792687,0.003042770826707538,0.013204208092545988,0.02399511394709655,0.010280662686827272,0.14043162492687497,0.0005297528397905302,0.004228007589891505,0.2241430288974885,0.012850740829124975,0.035131630156764994,0.007335356402810956,0.04606329395760126,0.047825777821856486,0.0027045610734379713,0.057108978078045415,0.013942611633025525,0.011022419717176206,0.10739308237934717,0.13211260532175984,TARA_B100001250,(DCM) deep chlorophyll maximum layer (ENVO:01000326),Westerlies Biome,(NPO) North Pacific Ocean [MRGID:1908],(NPST) North Pacific Subtropical and Polar Front Provinces [MRGID:21484],31.5,-159.06,113.8,15.3,34.4,225.5,0.7,0.02,0.13
TARA_132_MES_0.22-3,0.071166804903028,0.04628008899522478,0.0015624024593029217,0.007728249412082472,0.06493300119127914,0.0011154709102015234,0.030567177348754748,8.954996845074072e-06,0.007726934451806762,0.14753501411340392,0.03841356331719947,0.022884374455881908,0.011316153688410548,0.03293779672947139,0.04301155714579023,1.931098523142815e-05,0.054869983495453585,0.00736015833322374,0.02810852446452144,0.1718229656510186,0.21063151295186833,TARA_B100001245,(MES) mesopelagic zone (ENVO:00000213),Westerlies Biome,(NPO) North Pacific Ocean [MRGID:1908],(NPST) North Pacific Subtropical and Polar Front Provinces [MRGID:21484],31.53,-159.02,545.5,6.7,34.0,138.7,29.1,0.0,1.22
TARA_132_SRF_0.22-3,0.05954293727121009,0.030560631966320737,0.0049228616381956115,0.01762347470821359,0.011470983707426354,0.0024983029704691694,0.08562885910380497,0.000278063621006522,0.02583011821531126,0.4530106092853308,0.003333748795903035,0.023624345399750533,0.006220288119496797,0.07069749742688206,0.03756406205624124,0.0018309706477138098,0.042605938153202336,0.006192825931155109,0.00621114183153815,0.07507734669708181,0.035274992453746046,TARA_B100001248,(SRF) surface water layer (ENVO:00002042),Westerlies Biome,(NPO) North Pacific Ocean [MRGID:1908],(NPST) North Pacific Subtropical and Polar Front Provinces [MRGID:21484],31.52,-159.0,5.5,25.2,35.2,197.7,-1.0,0.0,0.01
TARA_133_DCM_0.22-3,0.06431599899378293,0.07352801017000143,0.004100944712317507,0.022368320521264317,0.023846813373431655,0.012499014909791264,0.09579918749478882,0.001052339266935321,0.008972800054780154,0.22990865412460149,0.00895031645329023,0.048055845524136706,0.008821929214820515,0.03752292166414646,0.05286984022474137,0.011353778591032185,0.10254640577845923,0.023238405854951998,0.014716824707946772,0.0829746181664504,0.07255703019832928,TARA_B100001094,(DCM) deep chlorophyll maximum layer (ENVO:01000326),Westerlies Biome,(NPO) North Pacific Ocean [MRGID:1908],(NPST) North Pacific Subtropical and Polar Front Provinces [MRGID:21484],35.42,-127.69,47.2,13.2,33.2,227.7,4.8,0.08,0.46
TARA_133_MES_0.22-3,0.067755918648781,0.046478692697677876,0.001734613520720425,0.005106153899944681,0.06591989180633014,0.0008140148677832393,0.03570220279223695,8.412143972249545e-06,0.0057003733104148396,0.1288250322388315,0.0442184895307017,0.012948192877195185,0.010691399316234003,0.03574048927500007,0.03305911058673293,2.8547124595234598e-05,0.04025415720328904,0.005415940111621105,0.028853688162545372,0.18443186197993544,0.24631281790545698,TARA_B100001105,(MES) mesopelagic zone (ENVO:00000213),Westerlies Biome,(NPO) North Pacific Ocean [MRGID:1908],(NPST) North Pacific Subtropical and Polar Front Provinces [MRGID:21484],35.31,-127.74,644.6,4.9,34.3,8.6,44.1,0.0,3.29
TARA_133_SRF_0.22-3,0.07833197179311763,0.08039744609891958,0.006250077862821111,0.028232803043132602,0.030774287130347418,0.007090289759620262,0.0776554700976047,0.0005669161896578951,0.04113754696714105,0.2896902053272795,0.00853640948945265,0.04133112554169946,0.008998275115722772,0.05657537428121051,0.02530373444716031,0.0032285918092293583,0.09237543438403817,0.01271740050985822,0.014519731506327576,0.06412291750956421,0.03216399113609506,TARA_B100001093,(SRF) surface water layer (ENVO:00002042),Westerlies Biome,(NPO) North Pacific Ocean [MRGID:1908],(NPST) North Pacific Subtropical and Polar Front Provinces [MRGID:21484],35.41,-127.74,5.5,19.2,33.1,224.4,-0.7,0.0,0.29
TARA_137_DCM_0.22-3,0.10487184461068529,0.029919970777670033,0.007786321374694044,0.004259457734989839,0.04177327870471213,0.0011549497947785847,0.03742632443527367,2.9366750372923793e-07,0.005071512704021133,0.40727448301631086,0.025165764950576427,0.011276179594807326,0.07440234992825576,0.010977866294787572,0.02876956332809013,8.134367142624652e-06,0.07231292792017428,0.0091274397005682,0.015210088803475897,0.07842723329856123,0.034784014992921324,TARA_B100001964,(DCM) deep chlorophyll maximum layer (ENVO:01000326),Trades Biome,(NPO) North Pacific Ocean [MRGID:1908],(PNEC) North Pacific Equatorial Countercurrent Province [MRGID:21488],14.17,-116.71,44.2,18.6,34.4,95.4,11.0,0.31,0.88
TARA_137_MES_0.22-3,0.0939889053767582,0.031521585378760014,0.007688262088621753,0.00540702003139808,0.04581933792048913,0.0007967718668455925,0.03142601140708603,1.951158599387997e-06,0.004149271138481279,0.3215006836374278,0.027654168529934433,0.018240545292724165,0.05866269825597812,0.01616809556728117,0.028897521042062686,0.0001770118904998279,0.0767687744376204,0.005043950298776508,0.017249619769311907,0.1169398731282529,0.09189794178309071,TARA_B100001971,(MES) mesopelagic zone (ENVO:00000213),Trades Biome,(NPO) North Pacific Ocean [MRGID:1908],(PNEC) North Pacific Equatorial Countercurrent Province [MRGID:21488],14.17,-116.66,371.0,8.9,34.6,0.6,35.7,0.01,2.95
TARA_137_SRF_0.22-3,0.07736765913044974,0.06986850577110981,0.00473441712699605,0.02725866117563093,0.013803054958487158,0.005501624336374923,0.06910095846556191,0.0007585107262117118,0.024479163813356245,0.34032381682217133,0.005120431773625112,0.031743163343703,0.00592888557230516,0.046396839172834034,0.0251521505630234,0.0016011790033567403,0.07661170167918134,0.019868323424559905,0.007168813482542995,0.075170087347985,0.07204205231053339,TARA_B100001287,(SRF) surface water layer (ENVO:00002042),Trades Biome,(NPO) North Pacific Ocean [MRGID:1908],(PNEC) North Pacific Equatorial Countercurrent Province [MRGID:21488],14.2,-116.63,5.4,26.4,33.9,195.1,3.2,0.07,0.46
TARA_138_DCM_0.22-3,0.07042828398936722,0.04605148200391568,0.0033083430139295095,0.024926124704870965,0.021297775619982844,0.010749274863251732,0.11887678353482671,0.0005744168154646047,0.0051814002766818685,0.22738693035823565,0.01685377725276282,0.03846912121075196,0.008562540178860326,0.040757092589147864,0.05216537777240932,0.004212014889183317,0.04895853926762362,0.024204484392939877,0.011284689881311918,0.10169633772931444,0.12405520965516777,TARA_B100001996,(DCM) deep chlorophyll maximum layer (ENVO:01000326),Trades Biome,(NPO) North Pacific Ocean [MRGID:1908],(PNEC) North Pacific Equatorial Countercurrent Province [MRGID:21488],6.34,-102.98,58.1,19.0,34.6,77.0,22.1,0.83,1.11
TARA_138_MES_0.22-3,0.09414729542356637,0.030078703198805606,0.00971530103891083,0.006054592470697079,0.05003034710621208,0.0012364557283418732,0.030913382429522393,2.3804031371156466e-06,0.004281214245665419,0.3353951134359808,0.027833069197883448,0.015617212662918142,0.060436777659449166,0.01532624955816569,0.02730775336986381,1.0367297247040315e-05,0.07714949259361052,0.005723347156981486,0.019733098921829076,0.11065248802450825,0.07835535807670393,TARA_B100002003,(MES) mesopelagic zone (ENVO:00000213),Trades Biome,(NPO) North Pacific Ocean [MRGID:1908],(PNEC) North Pacific Equatorial Countercurrent Province [MRGID:21488],6.37,-103.07,444.9,8.2,34.6,0.8,36.9,0.01,3.16
TARA_138_SRF_0.22-3,0.05450136052951099,0.0419110814785072,0.003184435843649147,0.020811260567998348,0.014385478238556522,0.0029086168533198884,0.1124529213834484,0.0004190329465318566,0.027789433488112348,0.4033710825041288,0.006355928038809767,0.022454836424002065,0.004864295820061964,0.06063037533581834,0.030975972512481714,0.0016577961093524685,0.0519953876657656,0.007679892185104751,0.008126724521089984,0.07878611368256155,0.0447379738711883,TARA_B100001989,(SRF) surface water layer (ENVO:00002042),Trades Biome,(NPO) North Pacific Ocean [MRGID:1908],(PNEC) North Pacific Equatorial Countercurrent Province [MRGID:21488],6.33,-102.94,5.4,26.6,33.4,196.9,-1.2,0.0,0.16
TARA_140_SRF_0.22-3,0.06244829344995913,0.09518993599469189,0.0043015878051665775,0.016255546902292892,0.029826573004854518,0.004416338722885732,0.07551884139570002,0.00011647639333514153,0.020336817268485123,0.3004084027857252,0.01856012622801869,0.02920059538722284,0.007026923562901665,0.05433737276233273,0.029524773638707938,0.0011271406607953189,0.0923500821369242,0.022719800541688432,0.013660900255100653,0.06582854519640258,0.05684492590680861,TARA_B100002019,(SRF) surface water layer (ENVO:00002042),Coastal Biome ,(NPO) North Pacific Ocean [MRGID:1908],(CAMR) Central American Coastal Province [MRGID:21494],7.41,-79.3,5.4,26.6,28.9,205.3,-3.8,0.0,0.08
TARA_141_SRF_0.22-3,0.0643437031014498,0.0967510461772588,0.004183791496744637,0.027587962949839874,0.02923982357048806,0.001939724037980271,0.07613956762513698,7.110021589748383e-05,0.02388391182874329,0.27983623648041916,0.032558989462243546,0.030112271636663968,0.013363226371664205,0.0667992622206018,0.026845767134073998,0.0004951858909744407,0.08852655178122931,0.020173561928629853,0.0209381153717947,0.06006297683949903,0.03614722387866671,TARA_B100001939,(SRF) surface water layer (ENVO:00002042),Coastal Biome ,(NAO) North Atlantic Ocean [MRGID:1912],(GUIA) Guianas Coastal Province [MRGID:21463],9.85,-80.04,5.4,27.1,34.3,195.5,-1.7,0.0,0.01
TARA_142_DCM_0.22-3,0.06762603378902103,0.05420344436517059,0.004243456232852417,0.027749793990456066,0.027234335499972423,0.005256675057465045,0.044349102329555586,0.0003908555658075594,0.02786125799723461,0.23110024492869025,0.014571123594905916,0.04080684545665335,0.006518355769504437,0.06281474024713908,0.04816745727163706,0.0013953940751432782,0.061553782655685535,0.012972463597542897,0.01337404014925305,0.1182102928568345,0.12960030456947522,TARA_B100002052,(DCM) deep chlorophyll maximum layer (ENVO:01000326),Coastal Biome ,(NAO) North Atlantic Ocean [MRGID:1912],(CARB) Caribbean Province [MRGID:21466],25.66,-88.47,123.7,24.9,36.2,193.0,0.4,0.02,0.02
TARA_142_MES_0.22-3,0.06376495772880465,0.045918949329046964,0.0016934503541393964,0.009134728390217924,0.06795312573408507,0.0008091949160507313,0.031052650921146827,8.325377149435846e-07,0.00862051076330571,0.11369060509853182,0.04507972774763662,0.023559174719819914,0.01200926628265566,0.0334218794217498,0.03452691148689887,2.354480833119635e-05,0.061529861539647665,0.005611542248731251,0.0344863095905361,0.1904259628581756,0.21668681352277325,TARA_B100002049,(MES) mesopelagic zone (ENVO:00000213),Coastal Biome ,(NAO) North Atlantic Ocean [MRGID:1912],(CARB) Caribbean Province [MRGID:21466],25.63,-88.44,634.8,9.8,35.2,108.2,31.9,0.0,1.22
TARA_142_SRF_0.22-3,0.07160172310629999,0.056397344246562855,0.003411217242517461,0.026951712643600783,0.02591903248832503,0.00462844895050218,0.04326576976355221,0.000312686080079764,0.03030350715247833,0.2463200321107886,0.018355882501252647,0.03744067724381024,0.006624956246035274,0.06253102335460779,0.04521381336888449,0.0010435826492895966,0.060750189645549645,0.016842672883646572,0.015547260312241545,0.10854619469024868,0.11799227331972637,TARA_B100002051,(SRF) surface water layer (ENVO:00002042),Coastal Biome ,(NAO) North Atlantic Ocean [MRGID:1912],(CARB) Caribbean Province [MRGID:21466],25.51,-88.38,5.4,25.0,36.2,194.3,-2.2,0.02,0.0
TARA_145_MES_0.22-3,0.06822595640366981,0.046295264394856456,0.0024366066259775424,0.008448068683770295,0.06497657309043654,0.001287810444827966,0.03176006529192511,1.2306381123190325e-06,0.007826137655198252,0.12351642721274532,0.03823798626250618,0.015774975313753426,0.009344179793271675,0.03696297109937674,0.04069471318583127,1.3169836254867735e-05,0.05018974624871783,0.006423077422738924,0.028480670768828584,0.18611173103664327,0.23299263859055758,TARA_B100001146,(MES) mesopelagic zone (ENVO:00000213) & marine oxygen minimum zone (ENVO:01000065),Westerlies Biome,(NAO) North Atlantic Ocean [MRGID:1912],(GFST) Gulf Stream Province [MRGID:21454],39.19,-70.08,585.7,5.1,35.0,230.2,19.9,0.01,1.47
TARA_145_SRF_0.22-3,0.06921454202425895,0.04312995418924265,0.008617505505018396,0.00852695075653344,0.02941847919043216,0.0237528883241486,0.035420066142148696,0.0002508504763507473,0.0030956461364167786,0.11288763006599895,0.020300300941409277,0.05906782492219237,0.0060951563483278935,0.0432125796216565,0.08236089496189812,0.009091021056192576,0.03219604362953969,0.008395911859011057,0.022882913084891213,0.16900036994578796,0.21308247081854403,TARA_B100001142,(SRF) surface water layer (ENVO:00002042),Westerlies Biome,(NAO) North Atlantic Ocean [MRGID:1912],(GFST) Gulf Stream Province [MRGID:21454],39.23,-70.03,5.5,14.1,35.2,233.9,3.5,0.11,0.35
TARA_146_MES_0.22-3,0.06632747236898419,0.0441290183150493,0.001888091131103164,0.007072440183055413,0.06803611397455446,0.001224457980396487,0.03170623138541166,3.9538925463834275e-06,0.007180556575270563,0.1415476222003817,0.04289680251671108,0.018638446902120884,0.010587017419687395,0.03559813279557617,0.04497144151992445,1.3935125395683957e-05,0.044246830555571916,0.008458726491939681,0.027635055710127032,0.17579267122003572,0.22204498173615675,TARA_B100001167,(MES) mesopelagic zone (ENVO:00000213),Westerlies Biome,(NAO) North Atlantic Ocean [MRGID:1912],(NAST-W) North Atlantic Subtropical Gyral Province [MRGID:21455],34.63,-71.26,633.3,11.0,35.4,138.1,21.8,0.0,1.31
TARA_146_SRF_0.22-3,0.06602857015379027,0.04857762342827097,0.005376134456119394,0.01304787727111467,0.04657087070242522,0.015398468716195173,0.035985450363574686,0.0003644084197123055,0.010697332114125685,0.12834576877727097,0.03550935755865879,0.03938977106238769,0.006106619849609319,0.0425344608914156,0.06770983549709114,0.005108279336210454,0.03443258764126468,0.011399234776169569,0.02337621231099716,0.15728503715905062,0.2067560995145456,TARA_B100001540,(SRF) surface water layer (ENVO:00002042),Westerlies Biome,(NAO) North Atlantic Ocean [MRGID:1912],(NAST-W) North Atlantic Subtropical Gyral Province [MRGID:21455],34.68,-71.3,11.7,19.1,36.5,214.4,0.9,0.22,0.02
TARA_148_SRF_0.22-3,0.0704529723082904,0.06377128663228322,0.004704074095358331,0.02038687858390666,0.0361178638389268,0.01269377802940563,0.037618521745556896,0.0006796988576149693,0.02869606484153149,0.1751009483911689,0.026246341214768702,0.04113288633334083,0.006974504016644098,0.05129097498509962,0.05595258136650297,0.0039734103764320905,0.04623460242118003,0.01605890933996805,0.016778541622810835,0.12828140125914686,0.15685375974006252,TARA_B100001741,(SRF) surface water layer (ENVO:00002042),Westerlies Biome,(NAO) North Atlantic Ocean [MRGID:1912],(NAST-W) North Atlantic Subtropical Gyral Province [MRGID:21455],31.7,-64.25,6.1,20.4,36.6,212.6,,0.09,0.0
TARA_148b_MES_0.22-3,0.06469040225759554,0.04162099221421457,0.00240554858711368,0.007974322024794641,0.058073971236759635,0.0017016444742422637,0.03230475514911408,6.3701315054785554e-06,0.004811021557014904,0.13663828482043658,0.04353650385220018,0.023486713224280406,0.010395140238444199,0.04118496860856637,0.05398601362405527,0.00011022823579052922,0.04757115070041109,0.006232809015475545,0.027838990162281804,0.1704048115295842,0.22502535835611903,TARA_B100001750,(MES) mesopelagic zone (ENVO:00000213),Westerlies Biome,(NAO) North Atlantic Ocean [MRGID:1912],(NAST-W) North Atlantic Subtropical Gyral Province [MRGID:21455],34.02,-56.87,246.4,18.2,36.6,191.8,4.0,0.03,0.18
TARA_149_MES_0.22-3,0.06824505507189714,0.04314341392630727,0.00215411428892369,0.006985631413942417,0.06943059386351669,0.001196903297719294,0.034022229513543514,1.7100186482851763e-06,0.006597667561264223,0.12311744055163606,0.04572686639765095,0.016799708946238962,0.009225009141717673,0.036054891074251944,0.03952509662158553,1.3805398863957434e-05,0.03816294313436071,0.006744748215714389,0.027590249588118364,0.18517682233470922,0.24008509963938962,TARA_B100001765,(MES) mesopelagic zone (ENVO:00000213),Westerlies Biome,(NAO) North Atlantic Ocean [MRGID:1912],(NAST-W) North Atlantic Subtropical Gyral Province [MRGID:21455],34.1,-49.78,734.3,10.6,35.4,155.2,21.3,0.01,1.36
TARA_149_SRF_0.22-3,0.07297860638948286,0.05743859397849129,0.006962900580585321,0.015782772310956306,0.031486570796234445,0.01967246819821409,0.029720401007726965,0.0005573631024026173,0.008245948588787012,0.14487029263333842,0.02618873080948779,0.05558380257015962,0.006965591515668464,0.048748710085237894,0.07278664196213157,0.007532224166637,0.0404586435042535,0.015826151873145736,0.018382223868952146,0.13596172755628208,0.18384963450182495,TARA_B100001758,(SRF) surface water layer (ENVO:00002042),Westerlies Biome,(NAO) North Atlantic Ocean [MRGID:1912],(NAST-W) North Atlantic Subtropical Gyral Province [MRGID:21455],34.1,-49.89,5.5,18.7,36.4,220.2,-1.2,0.25,0.06
TARA_150_DCM_0.22-3,0.06297431819963106,0.06277010729616381,0.005201350204945113,0.02326181435863157,0.017511575997407863,0.012244664889467528,0.08379663559340353,0.0004989717445323679,0.026662202344558565,0.2458193369936531,0.012008321314466518,0.0585141642250601,0.006247578886037202,0.03833524114359774,0.04676517348168157,0.004187895577168441,0.07704778358105142,0.01849884027397531,0.014200044337753279,0.09989916652885927,0.08355481302795466,TARA_B100001778,(DCM) deep chlorophyll maximum layer (ENVO:01000326),Westerlies Biome,(NAO) North Atlantic Ocean [MRGID:1912],(NAST-W) North Atlantic Subtropical Gyral Province [MRGID:21455],35.75,-37.05,39.8,17.7,36.2,230.1,1.2,0.04,0.0
TARA_150_SRF_0.22-3,0.07597229668345885,0.05658360384140612,0.006212092589484791,0.01807330911417925,0.017987686064207226,0.016390437714717626,0.07834337266153307,0.0008431345721039081,0.024401595272216282,0.26564944651992795,0.012284652202805337,0.046081968551267595,0.007140333344421061,0.04897089520783077,0.053233854824865916,0.005755146517232952,0.052615052698664774,0.017720121322737068,0.01186886781066306,0.0882129899700671,0.0956591425162094,TARA_B100001769,(SRF) surface water layer (ENVO:00002042),Westerlies Biome,(NAO) North Atlantic Ocean [MRGID:1912],(NAST-W) North Atlantic Subtropical Gyral Province [MRGID:21455],35.91,-37.26,5.5,17.6,36.3,228.4,-0.3,0.04,0.01
TARA_151_DCM_0.22-3,0.07210046718624202,0.056772453256029726,0.004461262185393855,0.023118914782286445,0.038455691787559004,0.010470730564454397,0.038077607611403365,0.0005884700374900782,0.007151295653721206,0.14740666619834378,0.02267656550522314,0.0413045854185587,0.008490256446829953,0.04080347462754833,0.0564101540749354,0.0031871824907867808,0.04755124787237637,0.016425046100118017,0.019851629842164407,0.14909138139983394,0.19560491695870103,TARA_B100001559,(DCM) deep chlorophyll maximum layer (ENVO:01000326),Westerlies Biome,(NAO) North Atlantic Ocean [MRGID:1912],(NAST-E) North Atlantic Subtropical Gyral Province [MRGID:21467],36.19,-28.88,77.6,16.8,36.2,228.5,1.6,0.01,0.01
TARA_151_SRF_0.22-3,0.08324446211983207,0.059927049860724065,0.004423488607388101,0.04189885051065308,0.013293454501663497,0.007386970284583258,0.08157054700708585,0.0004077319074657884,0.020850119292635742,0.2204237409294933,0.00549405265788577,0.047035057917200904,0.009836046680713539,0.05095870349474318,0.027859098155808264,0.0030589174124651163,0.07363938632719853,0.021816800666123723,0.0055239564192089575,0.09447143268467659,0.1268801325624507,TARA_B100001564,(SRF) surface water layer (ENVO:00002042),Westerlies Biome,(NAO) North Atlantic Ocean [MRGID:1912],(NAST-E) North Atlantic Subtropical Gyral Province [MRGID:21467],36.16,-29.01,5.4,17.3,36.2,232.1,0.3,0.02,0.01
TARA_152_MES_0.22-3,0.06462124712944771,0.04011082262120112,0.0024538687430077483,0.006902701655329118,0.06667039988103439,0.001109621059454384,0.030238040557054997,0.0,0.006767480103229873,0.12561679415158308,0.049934633108301325,0.018574858693265237,0.00984504533220459,0.03551841539942004,0.0409540627655184,2.9019941651025116e-06,0.08022094271778228,0.005962074195036438,0.024886110900385092,0.17299559577613516,0.21661438321644402,TARA_B100001179,(MES) mesopelagic zone (ENVO:00000213),Westerlies Biome,(NAO) North Atlantic Ocean [MRGID:1912],(NAST-E) North Atlantic Subtropical Gyral Province [MRGID:21467],43.74,-16.88,791.8,10.2,35.5,175.3,18.2,0.01,1.12
TARA_152_MIX_0.22-3,0.0892754243393318,0.059602529940851544,0.003870051362406356,0.011615503266228865,0.025055638486655856,0.01083150856788102,0.04902428522439153,0.0005501466663477171,0.009690483535565215,0.19402759214267,0.01881270244168961,0.043026692717310945,0.008737279483483162,0.047632927346863994,0.0651951463895327,0.002948743498888924,0.05124185526504717,0.013864764184595696,0.01666994774208279,0.11752135200296507,0.1608054253952101,TARA_B100001175,(MIX) marine epipelagic mixed layer (ENVO:01000061),Westerlies Biome,(NAO) North Atlantic Ocean [MRGID:1912],(NAST-E) North Atlantic Subtropical Gyral Province [MRGID:21467],43.79,-16.89,23.9,14.3,36.0,239.4,3.8,0.32,0.17
TARA_152_SRF_0.22-3,0.09046298122994234,0.06208337423264368,0.004455453622658594,0.012196784167874699,0.020034124354041224,0.013353809278454164,0.051404660363505744,0.0007789869660280196,0.011857718064893667,0.21721789477914527,0.017622966021108983,0.048296446033685964,0.008940050491078605,0.049314834105953456,0.06464970142740886,0.003614560827811859,0.054502553702514306,0.015128341696417613,0.014755332565960257,0.10193994558584854,0.1373894804830241,TARA_B100001173,(SRF) surface water layer (ENVO:00002042),Westerlies Biome,(NAO) North Atlantic Ocean [MRGID:1912],(NAST-E) North Atlantic Subtropical Gyral Province [MRGID:21467],43.69,-16.85,5.4,14.3,36.0,243.1,3.0,0.31,0.16
